{"type":"FeatureCollection","features":[{"type":"Feature","properties":{"nom":"Vienne","rang":9},"geometry":{"type":"MultiLineString","coordinates":[[[1.98,45.704],[1.92,45.696],[1.894,45.696],[1.871,45.71],[1.858,45.699],[1.846,45.694],[1.839,45.696],[1.843,45.71],[1.831,45.716],[1.789,45.724],[1.737,45.742],[1.718,45.746],[1.716,45.747],[1.701,45.754],[1.689,45.762],[1.681,45.765],[1.651,45.765],[1.609,45.777],[1.557,45.783],[1.525,45.794],[1.497,45.809],[1.454,45.844],[1.397,45.902],[1.383,45.895],[1.334,45.88],[1.323,45.872],[1.313,45.853],[1.292,45.841],[1.247,45.827],[1.215,45.804],[1.198,45.796],[1.175,45.792],[1.153,45.796],[1.138,45.806],[1.117,45.834],[1.087,45.863],[1.054,45.876],[0.881,45.896],[0.795,45.882],[0.751,45.884],[0.693,45.896],[0.653,45.917],[0.658,45.951],[0.656,45.966],[0.685,46.069],[0.688,46.089],[0.688,46.108],[0.685,46.127],[0.679,46.144],[0.672,46.162],[0.679,46.162],[0.678,46.17],[0.673,46.191],[0.672,46.197],[0.677,46.206],[0.684,46.213],[0.688,46.22],[0.686,46.231],[0.692,46.231],[0.687,46.244],[0.688,46.247],[0.692,46.252],[0.689,46.257],[0.688,46.259],[0.692,46.266],[0.686,46.266],[0.691,46.284],[0.689,46.328],[0.705,46.364],[0.705,46.385],[0.696,46.43],[0.689,46.437],[0.68,46.443],[0.672,46.451],[0.664,46.462],[0.646,46.501],[0.642,46.507],[0.639,46.513],[0.637,46.525],[0.638,46.533],[0.643,46.552],[0.644,46.56],[0.636,46.572],[0.603,46.601],[0.596,46.612],[0.552,46.708],[0.544,46.737],[0.535,46.838],[0.538,46.854],[0.552,46.875],[0.555,46.892],[0.56,46.904],[0.584,46.931],[0.589,46.947],[0.586,46.965],[0.571,46.989],[0.569,47.005],[0.555,47.054],[0.545,47.078],[0.518,47.099],[0.486,47.115],[0.459,47.122],[0.341,47.136],[0.322,47.146],[0.303,47.148],[0.195,47.177],[0.158,47.18],[0.127,47.19],[0.1,47.203],[0.075,47.218]]]}},{"type":"Feature","properties":{"nom":"Durance","rang":9},"geometry":{"type":"MultiLineString","coordinates":[[[6.681,44.922],[6.66,44.912],[6.622,44.884],[6.581,44.84],[6.575,44.828],[6.573,44.81],[6.574,44.766],[6.578,44.748],[6.599,44.703],[6.603,44.681],[6.593,44.657],[6.543,44.611],[6.528,44.592],[6.505,44.568],[6.476,44.558],[6.4,44.552],[6.391,44.549],[6.365,44.535],[6.325,44.494],[6.297,44.477],[6.259,44.468],[6.094,44.474],[6.073,44.468],[6.032,44.434],[6.016,44.426],[5.982,44.414],[5.966,44.406],[5.956,44.396],[5.937,44.362],[5.928,44.354],[5.918,44.346],[5.909,44.337],[5.904,44.325],[5.907,44.317],[5.914,44.313],[5.92,44.306],[5.916,44.289],[5.914,44.269],[5.923,44.247],[5.938,44.23],[5.955,44.222],[5.96,44.209],[5.965,44.183],[5.97,44.17],[6.004,44.113],[6.011,44.097],[6.01,44.079],[5.996,44.06],[5.94,44.014],[5.924,43.993],[5.912,43.969],[5.887,43.894],[5.871,43.863],[5.759,43.736],[5.736,43.718],[5.711,43.706],[5.644,43.695],[5.622,43.681],[5.583,43.666],[5.531,43.669],[5.414,43.695],[5.395,43.702],[5.378,43.711],[5.347,43.734],[5.337,43.74],[5.325,43.742],[5.308,43.742],[5.255,43.749],[5.193,43.749],[5.087,43.787],[5.066,43.799],[4.969,43.867],[4.906,43.895],[4.772,43.933],[4.763,43.932]]]}},{"type":"Feature","properties":{"nom":"Tarn","rang":9},"geometry":{"type":"MultiLineString","coordinates":[[[3.585,44.219],[3.581,44.246],[3.584,44.27],[3.596,44.296],[3.598,44.313],[3.59,44.334],[3.572,44.359],[3.563,44.363],[3.557,44.373],[3.54,44.375],[3.528,44.375],[3.515,44.37],[3.506,44.364],[3.498,44.357],[3.49,44.35],[3.478,44.347],[3.467,44.349],[3.435,44.366],[3.421,44.368],[3.409,44.366],[3.313,44.324],[3.252,44.323],[3.239,44.315],[3.23,44.252],[3.225,44.24],[3.219,44.231],[3.212,44.225],[3.203,44.221],[3.164,44.208],[3.124,44.178],[3.102,44.141],[3.077,44.109],[3.025,44.098],[2.971,44.097],[2.919,44.089],[2.916,44.086],[2.914,44.082],[2.911,44.078],[2.905,44.075],[2.883,44.076],[2.841,44.088],[2.82,44.087],[2.814,44.084],[2.803,44.074],[2.798,44.07],[2.788,44.067],[2.769,44.063],[2.759,44.059],[2.748,44.05],[2.727,44.029],[2.715,44.019],[2.682,44.01],[2.609,44.016],[2.576,44.011],[2.554,43.999],[2.516,43.969],[2.495,43.957],[2.467,43.951],[2.116,43.936],[2.066,43.926],[1.987,43.919],[1.961,43.913],[1.907,43.892],[1.819,43.875],[1.809,43.869],[1.792,43.854],[1.786,43.849],[1.764,43.839],[1.727,43.809],[1.707,43.797],[1.676,43.791],[1.644,43.792],[1.612,43.801],[1.58,43.814],[1.519,43.851],[1.471,43.896],[1.451,43.908],[1.385,43.924],[1.366,43.934],[1.355,43.948],[1.329,44.011],[1.327,44.018],[1.324,44.025],[1.317,44.034],[1.247,44.104],[1.226,44.116],[1.199,44.118],[1.143,44.108],[1.124,44.107],[1.085,44.118],[1.071,44.117],[1.058,44.113],[1.046,44.106],[1.036,44.097],[1.029,44.083]]]}},{"type":"Feature","properties":{"nom":"Marne","rang":9},"geometry":{"type":"MultiLineString","coordinates":[[[5.408,47.877],[5.387,47.877],[5.364,47.883],[5.332,47.899],[5.323,47.903],[5.299,47.925],[5.263,48.004],[5.242,48.027],[5.193,48.058],[5.179,48.072],[5.162,48.095],[5.157,48.105],[5.153,48.118],[5.151,48.137],[5.16,48.182],[5.156,48.204],[5.139,48.241],[5.139,48.265],[5.148,48.293],[5.145,48.307],[5.128,48.316],[5.133,48.318],[5.137,48.322],[5.142,48.327],[5.146,48.334],[5.154,48.348],[5.16,48.364],[5.163,48.379],[5.163,48.392],[5.153,48.437],[5.154,48.443],[5.161,48.452],[5.162,48.456],[5.156,48.462],[5.133,48.481],[5.113,48.511],[5.06,48.563],[5.042,48.589],[5.042,48.594],[5.044,48.606],[5.043,48.61],[5.036,48.613],[5.029,48.612],[5.022,48.61],[5.016,48.611],[4.992,48.623],[4.971,48.629],[4.948,48.631],[4.901,48.631],[4.837,48.645],[4.795,48.646],[4.711,48.639],[4.669,48.647],[4.645,48.658],[4.584,48.703],[4.581,48.71],[4.574,48.746],[4.568,48.757],[4.56,48.766],[4.551,48.774],[4.541,48.781],[4.533,48.789],[4.512,48.828],[4.494,48.846],[4.473,48.862],[4.464,48.865],[4.441,48.87],[4.434,48.875],[4.419,48.896],[4.411,48.904],[4.4,48.912],[4.369,48.932],[4.359,48.941],[4.34,48.97],[4.33,48.978],[4.312,48.985],[4.249,49],[4.168,49.039],[4.137,49.045],[4.034,49.047],[4.02,49.049],[4.015,49.055],[4.012,49.062],[4.005,49.069],[3.995,49.073],[3.96,49.076],[3.895,49.089],[3.806,49.083],[3.757,49.09],[3.541,49.089],[3.514,49.081],[3.464,49.055],[3.436,49.049],[3.414,49.047],[3.403,49.045],[3.393,49.04],[3.389,49.035],[3.384,49.021],[3.38,49.016],[3.373,49.01],[3.346,48.996],[3.33,48.99],[3.28,48.981],[3.263,48.978],[3.248,48.978],[3.232,48.98],[3.199,48.992],[3.186,48.993],[3.175,48.989],[3.144,48.966],[3.125,48.959],[3.106,48.955],[3.038,48.956],[3.014,48.961],[3.004,48.97],[3.015,48.977],[3.035,48.981],[3.047,48.99],[3.035,49.011],[3.024,49.016],[3.018,49.012],[3.011,49.004],[3.003,48.999],[2.992,48.999],[2.957,49.003],[2.953,49.004],[2.948,49.003],[2.94,48.996],[2.931,48.984],[2.936,48.98],[2.944,48.976],[2.944,48.963],[2.929,48.946],[2.909,48.944],[2.888,48.947],[2.873,48.946],[2.865,48.937],[2.852,48.912],[2.844,48.906],[2.829,48.906],[2.82,48.915],[2.809,48.938],[2.796,48.943],[2.778,48.938],[2.757,48.93],[2.722,48.92],[2.724,48.915],[2.74,48.906],[2.75,48.903],[2.763,48.902],[2.768,48.899],[2.757,48.889],[2.735,48.881],[2.637,48.873],[2.573,48.879],[2.563,48.879],[2.554,48.877],[2.546,48.874],[2.538,48.865],[2.525,48.845],[2.514,48.837],[2.492,48.833],[2.482,48.829],[2.483,48.822],[2.493,48.817],[2.508,48.813],[2.52,48.807],[2.52,48.796],[2.509,48.787],[2.494,48.789],[2.481,48.796],[2.457,48.814],[2.442,48.818],[2.425,48.818],[2.409,48.816]]]}},{"type":"Feature","properties":{"nom":"Seine","rang":4},"geometry":{"type":"MultiLineString","coordinates":[[[4.713,47.513],[4.704,47.527],[4.701,47.541],[4.705,47.555],[4.705,47.572],[4.708,47.578],[4.705,47.585],[4.697,47.592],[4.69,47.6],[4.687,47.613],[4.687,47.636],[4.685,47.644],[4.674,47.679],[4.667,47.684],[4.653,47.691],[4.623,47.698],[4.61,47.703],[4.605,47.715],[4.6,47.741],[4.585,47.763],[4.565,47.781],[4.543,47.794],[4.547,47.806],[4.564,47.834],[4.57,47.853],[4.576,47.863],[4.585,47.869],[4.566,47.869],[4.553,47.875],[4.544,47.886],[4.537,47.897],[4.543,47.899],[4.546,47.903],[4.548,47.906],[4.551,47.91],[4.536,47.92],[4.506,47.958],[4.506,47.967],[4.492,47.986],[4.475,48.004],[4.467,48.009],[4.454,48.027],[4.393,48.062],[4.379,48.092],[4.379,48.113],[4.376,48.123],[4.366,48.129],[4.345,48.136],[4.336,48.141],[4.33,48.145],[4.324,48.149],[4.313,48.15],[4.284,48.148],[4.276,48.15],[4.183,48.213],[4.16,48.212],[4.153,48.226],[4.145,48.239],[4.134,48.25],[4.125,48.259],[4.112,48.275],[4.084,48.325],[4.067,48.335],[4.043,48.343],[4.005,48.376],[3.977,48.392],[3.94,48.445],[3.913,48.472],[3.904,48.487],[3.906,48.499],[3.873,48.522],[3.831,48.529],[3.787,48.531],[3.748,48.54],[3.743,48.544],[3.731,48.561],[3.727,48.563],[3.721,48.567],[3.716,48.569],[3.714,48.564],[3.712,48.562],[3.707,48.559],[3.701,48.556],[3.697,48.555],[3.677,48.553],[3.655,48.549],[3.636,48.541],[3.621,48.53],[3.608,48.523],[3.589,48.521],[3.55,48.52],[3.544,48.522],[3.537,48.526],[3.531,48.526],[3.529,48.517],[3.525,48.512],[3.505,48.501],[3.499,48.499],[3.489,48.498],[3.476,48.494],[3.468,48.492],[3.462,48.493],[3.456,48.494],[3.449,48.494],[3.44,48.492],[3.439,48.49],[3.419,48.473],[3.41,48.469],[3.402,48.469],[3.396,48.468],[3.392,48.458],[3.385,48.458],[3.371,48.466],[3.35,48.467],[3.332,48.461],[3.323,48.448],[3.315,48.439],[3.294,48.432],[3.255,48.424],[3.21,48.433],[3.187,48.436],[3.169,48.428],[3.154,48.418],[3.113,48.401],[3.097,48.397],[3.075,48.396],[3.012,48.404],[2.863,48.382],[2.851,48.387],[2.847,48.391],[2.827,48.402],[2.82,48.404],[2.815,48.403],[2.806,48.398],[2.8,48.397],[2.796,48.4],[2.796,48.407],[2.798,48.414],[2.797,48.417],[2.783,48.419],[2.769,48.418],[2.756,48.418],[2.747,48.424],[2.746,48.437],[2.753,48.447],[2.762,48.456],[2.768,48.465],[2.762,48.484],[2.739,48.488],[2.711,48.487],[2.687,48.492],[2.678,48.502],[2.677,48.512],[2.677,48.523],[2.672,48.534],[2.66,48.54],[2.65,48.538],[2.631,48.527],[2.614,48.523],[2.605,48.524],[2.583,48.534],[2.547,48.542],[2.535,48.547],[2.535,48.555],[2.548,48.561],[2.544,48.567],[2.515,48.575],[2.492,48.576],[2.489,48.583],[2.488,48.605],[2.476,48.629],[2.447,48.652],[2.392,48.685],[2.426,48.715],[2.441,48.732],[2.443,48.743],[2.428,48.757],[2.422,48.764],[2.42,48.771],[2.42,48.792],[2.418,48.797],[2.412,48.808],[2.391,48.834],[2.359,48.855],[2.323,48.867],[2.289,48.862],[2.255,48.838],[2.235,48.834],[2.227,48.853],[2.233,48.869],[2.248,48.886],[2.267,48.901],[2.282,48.911],[2.319,48.923],[2.327,48.931],[2.33,48.948],[2.319,48.958],[2.295,48.957],[2.255,48.945],[2.229,48.928],[2.214,48.921],[2.196,48.918],[2.184,48.913],[2.163,48.89],[2.152,48.883],[2.125,48.886],[2.122,48.911],[2.136,48.939],[2.167,48.954],[2.172,48.96],[2.177,48.968],[2.179,48.976],[2.177,48.985],[2.173,48.989],[2.167,48.99],[2.145,48.997],[2.093,49],[2.073,48.995],[2.061,48.983],[2.042,48.952],[2.024,48.943],[2.008,48.947],[2,48.96],[2.008,48.979],[1.99,49.001],[1.978,49.01],[1.96,49.014],[1.941,49.014],[1.814,48.981],[1.799,48.979],[1.765,48.979],[1.751,48.982],[1.734,48.99],[1.719,49],[1.713,49.01],[1.704,49.014],[1.648,49.014],[1.619,49.02],[1.637,49.036],[1.699,49.069],[1.675,49.076],[1.653,49.078],[1.633,49.074],[1.589,49.047],[1.578,49.043],[1.562,49.041],[1.547,49.046],[1.535,49.058],[1.525,49.069],[1.514,49.077],[1.51,49.091],[1.507,49.096],[1.502,49.098],[1.486,49.101],[1.479,49.103],[1.457,49.126],[1.449,49.13],[1.439,49.133],[1.432,49.14],[1.426,49.149],[1.419,49.157],[1.387,49.174],[1.384,49.178],[1.359,49.183],[1.346,49.198],[1.351,49.212],[1.374,49.219],[1.39,49.226],[1.39,49.241],[1.375,49.253],[1.35,49.253],[1.333,49.245],[1.296,49.218],[1.279,49.212],[1.268,49.214],[1.244,49.219],[1.233,49.223],[1.235,49.233],[1.243,49.242],[1.247,49.247],[1.254,49.256],[1.259,49.26],[1.261,49.266],[1.26,49.292],[1.259,49.3],[1.254,49.306],[1.089,49.315],[1.035,49.297],[1.006,49.295],[0.993,49.308],[1.003,49.319],[1.026,49.328],[1.053,49.333],[1.092,49.337],[1.109,49.343],[1.119,49.355],[1.124,49.376],[1.115,49.412],[1.09,49.44],[1.056,49.45],[1.021,49.431],[1.001,49.372],[0.99,49.363],[0.952,49.356],[0.933,49.357],[0.918,49.37],[0.914,49.389],[0.919,49.408],[0.928,49.427],[0.932,49.449],[0.929,49.473],[0.92,49.486],[0.905,49.49],[0.874,49.484],[0.867,49.481],[0.861,49.476],[0.856,49.466],[0.857,49.458],[0.867,49.431],[0.872,49.426],[0.868,49.414],[0.86,49.404],[0.856,49.4],[0.851,49.394],[0.839,49.399],[0.812,49.42],[0.809,49.426],[0.809,49.438],[0.82,49.456],[0.825,49.467],[0.819,49.473],[0.814,49.475],[0.8,49.484],[0.78,49.489],[0.778,49.496],[0.778,49.505],[0.774,49.513],[0.76,49.522],[0.74,49.526],[0.695,49.527],[0.681,49.52],[0.672,49.502],[0.658,49.466],[0.648,49.453],[0.634,49.445],[0.616,49.44],[0.592,49.438],[0.573,49.444],[0.54,49.473],[0.52,49.486],[0.508,49.492],[0.502,49.494],[0.493,49.494]]]}},{"type":"Feature","properties":{"nom":"Rhin","rang":4},"geometry":{"type":"MultiLineString","coordinates":[[[8.881,47.656],[8.852,47.671],[8.816,47.684],[8.777,47.694],[8.64,47.696],[8.632,47.69],[8.625,47.682],[8.607,47.671],[8.617,47.666],[8.625,47.659],[8.625,47.651],[8.614,47.643],[8.607,47.657],[8.602,47.647],[8.6,47.613],[8.594,47.601],[8.568,47.575],[8.56,47.561],[8.539,47.569],[8.523,47.578],[8.505,47.585],[8.48,47.588],[8.417,47.581],[8.354,47.581],[8.316,47.588],[8.306,47.592],[8.299,47.602],[8.293,47.612],[8.288,47.616],[8.277,47.617],[8.25,47.622],[8.232,47.622],[8.179,47.616],[8.173,47.614],[8.168,47.609],[8.162,47.604],[8.143,47.6],[8.122,47.592],[8.113,47.588],[8.105,47.581],[8.101,47.576],[8.096,47.572],[8.087,47.568],[8.042,47.561],[7.912,47.561],[7.909,47.565],[7.907,47.574],[7.904,47.584],[7.898,47.588],[7.833,47.591],[7.819,47.596],[7.801,47.576],[7.785,47.563],[7.766,47.556],[7.683,47.545],[7.661,47.546],[7.609,47.565],[7.589,47.568],[7.584,47.573],[7.585,47.584],[7.59,47.595],[7.592,47.599],[7.59,47.608],[7.585,47.613],[7.578,47.617],[7.572,47.622],[7.55,47.653],[7.536,47.665],[7.521,47.671],[7.517,47.675],[7.514,47.686],[7.511,47.708],[7.515,47.714],[7.532,47.725],[7.537,47.732],[7.538,47.748],[7.525,47.783],[7.528,47.797],[7.542,47.83],[7.548,47.834],[7.561,47.84],[7.564,47.851],[7.559,47.869],[7.559,47.874],[7.558,47.876],[7.557,47.879],[7.559,47.883],[7.561,47.887],[7.568,47.892],[7.572,47.897],[7.578,47.907],[7.58,47.911],[7.579,47.927],[7.584,47.941],[7.611,47.96],[7.621,47.972],[7.618,48.003],[7.575,48.054],[7.572,48.095],[7.578,48.115],[7.585,48.13],[7.592,48.139],[7.599,48.145],[7.604,48.153],[7.606,48.167],[7.613,48.179],[7.676,48.239],[7.687,48.253],[7.693,48.27],[7.695,48.29],[7.702,48.311],[7.718,48.32],[7.736,48.327],[7.75,48.342],[7.751,48.356],[7.746,48.369],[7.74,48.382],[7.737,48.394],[7.738,48.407],[7.745,48.433],[7.75,48.445],[7.757,48.454],[7.764,48.461],[7.769,48.47],[7.771,48.489],[7.776,48.498],[7.788,48.507],[7.813,48.52],[7.813,48.527],[7.801,48.548],[7.801,48.583],[7.81,48.615],[7.852,48.659],[7.864,48.664],[7.88,48.668],[7.895,48.677],[7.923,48.699],[7.935,48.704],[7.948,48.712],[7.959,48.722],[7.963,48.73],[7.964,48.749],[7.97,48.758],[7.981,48.76],[8.009,48.76],[8.017,48.762],[8.022,48.765],[8.025,48.771],[8.027,48.78],[8.031,48.786],[8.036,48.789],[8.038,48.791],[8.047,48.791],[8.084,48.804],[8.09,48.808],[8.102,48.822],[8.147,48.904],[8.179,48.943],[8.2,48.959],[8.23,48.965]]]}},{"type":"Feature","properties":{"nom":"Rhne","rang":6},"geometry":{"type":"MultiLineString","coordinates":[[[6.133,46.205],[6.141,46.215],[6.148,46.22],[6.163,46.232],[6.175,46.249],[6.185,46.269],[6.214,46.316],[6.219,46.329],[6.24,46.349],[6.268,46.375],[6.301,46.395],[6.332,46.402],[6.365,46.403],[6.397,46.408],[6.482,46.449],[6.546,46.458],[6.613,46.456],[6.762,46.43],[6.761,46.431],[6.838,46.418],[6.856,46.409],[6.866,46.403]]]}},{"type":"Feature","properties":{"nom":"Rhône","rang":6},"geometry":{"type":"MultiLineString","coordinates":[[[8.379,46.579],[8.369,46.565],[8.357,46.556],[8.348,46.543],[8.325,46.527],[8.293,46.509],[8.261,46.489],[8.25,46.482],[8.106,46.394],[8.038,46.362],[8.029,46.349],[8.007,46.338],[7.963,46.325],[7.924,46.319],[7.799,46.325],[7.627,46.331],[7.604,46.327],[7.568,46.309],[7.476,46.29],[7.43,46.261],[7.391,46.254],[7.362,46.237],[7.195,46.181],[7.102,46.132],[7.072,46.128],[7.063,46.134],[7.052,46.145],[7.042,46.158],[7.038,46.166],[7.037,46.187],[7.033,46.2],[7.026,46.21],[7.003,46.231],[6.94,46.307],[6.935,46.317],[6.931,46.334],[6.92,46.34],[6.907,46.342],[6.894,46.348],[6.891,46.355],[6.892,46.363],[6.894,46.37],[6.894,46.375],[6.888,46.383],[6.873,46.395],[6.866,46.403]],[[6.133,46.205],[6.122,46.205],[6.109,46.208],[6.099,46.211],[6.093,46.212],[6.092,46.213],[6.082,46.211],[6.072,46.209],[6.062,46.208],[6.051,46.205],[6.02,46.183],[6.002,46.176],[5.968,46.139],[5.955,46.128],[5.945,46.127],[5.923,46.13],[5.914,46.128],[5.906,46.123],[5.893,46.106],[5.886,46.099],[5.872,46.093],[5.864,46.097],[5.857,46.105],[5.846,46.111],[5.825,46.095],[5.824,46.05],[5.839,45.971],[5.841,45.933],[5.832,45.898],[5.8,45.832],[5.792,45.811],[5.789,45.797],[5.775,45.795],[5.758,45.795],[5.736,45.793],[5.72,45.777],[5.708,45.757],[5.709,45.734],[5.713,45.713],[5.713,45.7],[5.694,45.687],[5.661,45.657],[5.641,45.646],[5.62,45.644],[5.601,45.656],[5.566,45.701],[5.547,45.72],[5.478,45.764],[5.45,45.793],[5.433,45.831],[5.434,45.832],[5.438,45.833],[5.439,45.834],[5.435,45.839],[5.43,45.844],[5.385,45.874],[5.369,45.88],[5.362,45.879],[5.357,45.876],[5.347,45.874],[5.334,45.868],[5.319,45.854],[5.273,45.8],[5.257,45.79],[5.239,45.786],[5.22,45.789],[5.191,45.803],[5.167,45.809],[5.134,45.823],[5.118,45.827],[5.102,45.826],[5.067,45.821],[5.05,45.82],[4.992,45.827],[4.976,45.825],[4.947,45.816],[4.917,45.811],[4.877,45.799],[4.865,45.792],[4.862,45.778],[4.861,45.76],[4.856,45.75],[4.838,45.759],[4.831,45.752],[4.824,45.745],[4.844,45.717],[4.841,45.683],[4.823,45.648],[4.8,45.618],[4.802,45.593],[4.839,45.573],[4.87,45.55],[4.855,45.515],[4.786,45.473],[4.76,45.444],[4.755,45.402],[4.773,45.357],[4.776,45.337],[4.783,45.325],[4.799,45.313],[4.812,45.299],[4.811,45.279],[4.817,45.279],[4.813,45.26],[4.812,45.229],[4.814,45.197],[4.827,45.158],[4.822,45.133],[4.823,45.111],[4.845,45.101],[4.841,45.088],[4.846,45.081],[4.853,45.074],[4.858,45.066],[4.859,45.054],[4.853,45.033],[4.851,45.022],[4.857,45.002],[4.886,44.967],[4.893,44.95],[4.889,44.932],[4.869,44.885],[4.862,44.875],[4.858,44.871],[4.836,44.854],[4.831,44.851],[4.828,44.837],[4.822,44.831],[4.814,44.827],[4.803,44.821],[4.788,44.808],[4.778,44.795],[4.771,44.779],[4.769,44.755],[4.773,44.741],[4.791,44.713],[4.796,44.696],[4.789,44.658],[4.767,44.631],[4.74,44.606],[4.721,44.573],[4.703,44.475],[4.7,44.466],[4.677,44.437],[4.672,44.429],[4.67,44.421],[4.674,44.415],[4.666,44.392],[4.658,44.276],[4.66,44.264],[4.666,44.258],[4.675,44.253],[4.684,44.246],[4.692,44.217],[4.704,44.207],[4.716,44.194],[4.721,44.169],[4.718,44.123],[4.719,44.103],[4.729,44.086],[4.736,44.086],[4.753,44.096],[4.771,44.088],[4.787,44.074],[4.8,44.066],[4.851,44.025],[4.851,44.014],[4.846,44.008],[4.838,44.005],[4.827,44.004],[4.817,44.001],[4.819,43.993],[4.823,43.983],[4.821,43.973],[4.771,43.937],[4.762,43.932],[4.754,43.931],[4.708,43.908],[4.655,43.889],[4.647,43.884],[4.647,43.812],[4.641,43.789],[4.612,43.737],[4.616,43.714],[4.616,43.709]],[[4.617,43.71],[4.616,43.709]],[[4.616,43.709],[4.603,43.702],[4.591,43.706],[4.574,43.709],[4.512,43.709],[4.48,43.7],[4.462,43.677],[4.448,43.652],[4.427,43.634],[4.427,43.628],[4.44,43.623],[4.455,43.621],[4.464,43.618],[4.461,43.606],[4.449,43.596],[4.419,43.589],[4.407,43.579],[4.403,43.572],[4.388,43.562],[4.351,43.545],[4.36,43.537],[4.401,43.453]],[[4.616,43.709],[4.61,43.659],[4.622,43.648],[4.642,43.639],[4.677,43.594],[4.695,43.579]]]}},{"type":"Feature","properties":{"nom":"Mosel","rang":7},"geometry":{"type":"MultiLineString","coordinates":[[[6.922,48.015],[6.879,48.012],[6.857,48.005],[6.841,47.993],[6.83,47.972],[6.817,47.963],[6.797,47.959],[6.774,47.958],[6.752,47.963],[6.736,47.971],[6.723,47.985],[6.712,48.004],[6.695,48.018],[6.667,48.022],[6.635,48.023],[6.607,48.031],[6.594,48.045],[6.599,48.062],[6.607,48.08],[6.606,48.089],[6.595,48.093],[6.56,48.114],[6.55,48.123],[6.544,48.123],[6.537,48.12],[6.525,48.121],[6.515,48.126],[6.51,48.133],[6.507,48.147],[6.499,48.147],[6.487,48.144],[6.476,48.144],[6.456,48.156],[6.447,48.175],[6.445,48.196],[6.448,48.218],[6.428,48.253],[6.414,48.273],[6.398,48.287],[6.393,48.294],[6.393,48.306],[6.257,48.404],[6.257,48.41],[6.265,48.415],[6.276,48.43],[6.284,48.438],[6.302,48.446],[6.309,48.451],[6.312,48.462],[6.307,48.485],[6.295,48.504],[6.263,48.534],[6.247,48.545],[6.229,48.555],[6.223,48.559],[6.222,48.564],[6.22,48.567],[6.212,48.568],[6.198,48.568],[6.191,48.569],[6.185,48.572],[6.171,48.584],[6.15,48.599],[6.126,48.608],[6.105,48.602],[6.087,48.61],[6.067,48.617],[6.049,48.626],[6.037,48.643],[6.018,48.651],[5.914,48.647],[5.91,48.65],[5.903,48.65],[5.896,48.652],[5.893,48.661],[5.894,48.672],[5.897,48.677],[5.914,48.685],[5.922,48.686],[5.943,48.684],[5.948,48.688],[5.951,48.693],[5.969,48.705],[5.99,48.736],[6.003,48.748],[6.02,48.753],[6.058,48.753],[6.07,48.75],[6.079,48.751],[6.089,48.757],[6.106,48.764],[6.124,48.767],[6.136,48.772],[6.133,48.788],[6.123,48.797],[6.112,48.8],[6.107,48.806],[6.119,48.821],[6.11,48.825],[6.103,48.827],[6.098,48.826],[6.092,48.821],[6.085,48.834],[6.08,48.849],[6.081,48.862],[6.092,48.87],[6.092,48.877],[6.072,48.881],[6.054,48.897],[6.045,48.918],[6.051,48.931],[6.058,48.937],[6.05,48.95],[6.03,48.993],[6.042,49.001],[6.047,49.012],[6.051,49.026],[6.058,49.041],[6.085,49.082],[6.102,49.096],[6.152,49.125],[6.171,49.13],[6.19,49.139],[6.204,49.158],[6.206,49.177],[6.189,49.185],[6.194,49.199],[6.196,49.215],[6.192,49.23],[6.181,49.239],[6.189,49.247],[6.181,49.253],[6.186,49.258],[6.19,49.263],[6.195,49.274],[6.171,49.287],[6.168,49.31],[6.168,49.334],[6.153,49.356],[6.181,49.365],[6.196,49.371],[6.202,49.38],[6.209,49.386],[6.253,49.404],[6.263,49.406],[6.27,49.409],[6.281,49.421],[6.29,49.427],[6.297,49.426],[6.303,49.423],[6.312,49.425],[6.319,49.433],[6.322,49.442],[6.326,49.449],[6.336,49.452],[6.346,49.452],[6.345,49.455],[6.345,49.463],[6.342,49.493],[6.351,49.535],[6.351,49.567],[6.356,49.578],[6.372,49.593],[6.398,49.614],[6.408,49.627],[6.415,49.635],[6.418,49.639],[6.417,49.646],[6.411,49.65],[6.404,49.652],[6.403,49.656],[6.418,49.67],[6.492,49.701],[6.51,49.713],[6.536,49.713],[6.563,49.709],[6.589,49.708],[6.613,49.719],[6.621,49.732],[6.63,49.762],[6.637,49.767],[6.687,49.78],[6.695,49.784],[6.698,49.802],[6.702,49.815],[6.709,49.823],[6.722,49.825],[6.734,49.822],[6.747,49.817],[6.771,49.812],[6.794,49.798],[6.804,49.795],[6.82,49.795],[6.83,49.798],[6.84,49.799],[6.853,49.795],[6.844,49.815],[6.839,49.823],[6.832,49.829],[6.847,49.842],[6.859,49.841],[6.899,49.82],[6.9,49.823],[6.901,49.836],[6.895,49.857],[6.894,49.871],[6.901,49.883],[6.912,49.89],[6.922,49.887],[6.93,49.877],[6.935,49.864],[6.952,49.89],[6.969,49.907],[6.993,49.917],[7.06,49.921],[7.05,49.934],[6.996,49.967],[7.01,49.978],[7.025,49.979],[7.065,49.972],[7.069,49.969],[7.073,49.969],[7.089,49.982],[7.095,49.985],[7.101,49.984],[7.106,49.98],[7.106,49.973],[7.101,49.961],[7.11,49.953],[7.124,49.954],[7.133,49.967],[7.129,49.975],[7.118,49.985],[7.112,49.995],[7.12,50.008],[7.114,50.023],[7.114,50.041],[7.118,50.052],[7.13,50.045],[7.154,50.023],[7.168,50.015],[7.175,50.024],[7.169,50.041],[7.154,50.048],[7.139,50.053],[7.127,50.062],[7.126,50.075],[7.13,50.087],[7.129,50.097],[7.113,50.103],[7.135,50.103],[7.156,50.098],[7.175,50.091],[7.188,50.083],[7.195,50.086],[7.202,50.089],[7.197,50.094],[7.195,50.098],[7.193,50.101],[7.188,50.103],[7.199,50.108],[7.211,50.11],[7.236,50.11],[7.236,50.117],[7.226,50.126],[7.227,50.135],[7.231,50.145],[7.23,50.151],[7.219,50.151],[7.19,50.14],[7.178,50.137],[7.171,50.141],[7.167,50.148],[7.167,50.155],[7.171,50.158],[7.247,50.172],[7.276,50.172],[7.289,50.175],[7.302,50.182],[7.314,50.186],[7.346,50.184],[7.36,50.185],[7.368,50.192],[7.376,50.204],[7.385,50.215],[7.398,50.22],[7.422,50.224],[7.449,50.233],[7.449,50.24],[7.442,50.24],[7.442,50.247],[7.447,50.251],[7.447,50.252],[7.445,50.253],[7.442,50.261],[7.453,50.268],[7.457,50.281],[7.458,50.296],[7.463,50.309],[7.474,50.317],[7.487,50.318],[7.521,50.315],[7.53,50.32],[7.545,50.329],[7.556,50.338],[7.555,50.343],[7.552,50.347],[7.557,50.357],[7.569,50.371],[7.579,50.37],[7.606,50.364]]]}},{"type":"Feature","properties":{"nom":"Dordogne","rang":8},"geometry":{"type":"MultiLineString","coordinates":[[[2.755,45.594],[2.731,45.595],[2.696,45.611],[2.64,45.618],[2.619,45.618],[2.597,45.614],[2.589,45.61],[2.553,45.586],[2.535,45.574],[2.532,45.573],[2.523,45.564],[2.521,45.519],[2.515,45.504],[2.521,45.486],[2.515,45.464],[2.506,45.441],[2.502,45.419],[2.496,45.405],[2.481,45.397],[2.461,45.394],[2.44,45.395],[2.42,45.402],[2.384,45.419],[2.361,45.423],[2.353,45.42],[2.352,45.413],[2.356,45.405],[2.368,45.39],[2.37,45.384],[2.368,45.377],[2.36,45.359],[2.344,45.341],[2.34,45.338],[2.32,45.324],[2.32,45.32],[2.312,45.316],[2.305,45.296],[2.299,45.292],[2.287,45.291],[2.278,45.288],[2.261,45.279],[2.257,45.279],[2.255,45.281],[2.253,45.282],[2.248,45.279],[2.246,45.276],[2.243,45.268],[2.231,45.249],[2.225,45.241],[2.217,45.238],[2.145,45.231],[2.138,45.232],[2.126,45.237],[2.121,45.238],[2.114,45.235],[2.108,45.231],[2.104,45.226],[2.104,45.224],[2.092,45.225],[2.069,45.231],[2.056,45.231],[2.038,45.221],[2.026,45.203],[2.008,45.162],[1.992,45.144],[1.933,45.108],[1.911,45.084],[1.913,45.087],[1.9,45.077],[1.901,45.071],[1.913,45.066],[1.913,45.059],[1.901,45.057],[1.857,45.056],[1.836,45.039],[1.829,45.027],[1.843,45.018],[1.83,45.007],[1.832,44.995],[1.839,44.982],[1.843,44.967],[1.84,44.952],[1.831,44.937],[1.82,44.925],[1.809,44.915]],[[1.809,44.909],[1.771,44.911],[1.724,44.915],[1.718,44.919],[1.701,44.933],[1.696,44.937],[1.673,44.935],[1.661,44.932],[1.651,44.929],[1.635,44.918],[1.603,44.887],[1.586,44.881],[1.577,44.883],[1.575,44.884],[1.566,44.871],[1.559,44.866],[1.551,44.861],[1.543,44.857],[1.535,44.855],[1.52,44.853],[1.502,44.855],[1.486,44.863],[1.479,44.878],[1.47,44.887],[1.448,44.888],[1.404,44.881],[1.345,44.858],[1.318,44.852],[1.302,44.843],[1.292,44.84],[1.281,44.841],[1.26,44.846],[1.254,44.847],[1.25,44.845],[1.246,44.839],[1.243,44.833],[1.24,44.827],[1.222,44.831],[1.192,44.813],[1.172,44.821],[1.179,44.827],[1.176,44.828],[1.173,44.828],[1.172,44.828],[1.172,44.834],[1.165,44.834],[1.161,44.827],[1.154,44.821],[1.147,44.821],[1.144,44.83],[1.139,44.834],[1.126,44.832],[1.113,44.828],[1.103,44.827],[1.044,44.858],[1.028,44.861],[1.02,44.855],[1.012,44.837],[1.004,44.834],[0.97,44.832],[0.959,44.834],[0.942,44.842],[0.926,44.854],[0.91,44.861],[0.89,44.855],[0.877,44.864],[0.872,44.87],[0.87,44.878],[0.865,44.886],[0.855,44.878],[0.847,44.866],[0.849,44.861],[0.83,44.864],[0.805,44.887],[0.789,44.881],[0.791,44.852],[0.752,44.843],[0.37,44.861],[0.36,44.86],[0.342,44.856],[0.333,44.855],[0.322,44.857],[0.315,44.861],[0.31,44.866],[0.305,44.868],[0.251,44.879],[0.233,44.881],[0.24,44.868],[0.224,44.858],[0.193,44.832],[0.174,44.827],[0.031,44.84],[0.028,44.843],[0.011,44.856],[0.007,44.858],[0.001,44.863],[-0.013,44.861],[-0.034,44.855],[-0.098,44.846],[-0.132,44.826],[-0.149,44.829],[-0.178,44.847],[-0.188,44.851],[-0.197,44.852],[-0.204,44.854],[-0.212,44.861],[-0.217,44.87],[-0.216,44.876],[-0.214,44.882],[-0.212,44.892],[-0.216,44.9],[-0.226,44.902],[-0.236,44.901],[-0.24,44.898],[-0.244,44.89],[-0.253,44.898],[-0.261,44.911],[-0.26,44.915],[-0.281,44.924],[-0.29,44.917],[-0.298,44.908],[-0.316,44.909],[-0.329,44.937],[-0.338,44.942],[-0.348,44.946],[-0.359,44.949],[-0.367,44.95],[-0.449,44.95],[-0.461,44.956],[-0.48,44.988],[-0.494,44.998]]]}},{"type":"Feature","properties":{"nom":"Yonne","rang":8},"geometry":{"type":"MultiLineString","coordinates":[[[3.968,47.04],[3.94,47.088],[3.937,47.105],[3.936,47.119],[3.93,47.13],[3.913,47.136],[3.878,47.17],[3.861,47.169],[3.849,47.172],[3.824,47.184],[3.81,47.187],[3.776,47.184],[3.746,47.189],[3.716,47.201],[3.688,47.22],[3.663,47.242],[3.65,47.258],[3.65,47.265],[3.656,47.272],[3.659,47.283],[3.661,47.29],[3.664,47.294],[3.666,47.299],[3.666,47.307],[3.664,47.31],[3.659,47.313],[3.654,47.317],[3.65,47.334],[3.645,47.334],[3.638,47.332],[3.633,47.335],[3.63,47.342],[3.625,47.358],[3.611,47.381],[3.609,47.392],[3.612,47.424],[3.598,47.418],[3.58,47.42],[3.563,47.428],[3.55,47.437],[3.553,47.448],[3.55,47.454],[3.544,47.456],[3.536,47.451],[3.518,47.473],[3.519,47.496],[3.532,47.516],[3.55,47.527],[3.565,47.529],[3.591,47.526],[3.605,47.527],[3.603,47.528],[3.608,47.533],[3.618,47.54],[3.617,47.537],[3.624,47.535],[3.638,47.534],[3.635,47.543],[3.636,47.55],[3.642,47.553],[3.652,47.554],[3.646,47.579],[3.646,47.585],[3.649,47.596],[3.658,47.596],[3.67,47.593],[3.68,47.596],[3.685,47.604],[3.684,47.612],[3.681,47.619],[3.68,47.626],[3.681,47.682],[3.677,47.687],[3.666,47.697],[3.656,47.702],[3.645,47.704],[3.636,47.709],[3.633,47.722],[3.599,47.738],[3.591,47.746],[3.591,47.756],[3.597,47.764],[3.612,47.78],[3.594,47.791],[3.585,47.798],[3.577,47.807],[3.579,47.811],[3.576,47.839],[3.574,47.845],[3.536,47.903],[3.536,47.92],[3.514,47.954],[3.462,47.972],[3.369,47.988],[3.369,47.989],[3.355,47.994],[3.303,48.013],[3.303,48.02],[3.322,48.029],[3.319,48.041],[3.296,48.061],[3.289,48.07],[3.287,48.074],[3.289,48.092],[3.286,48.1],[3.281,48.107],[3.274,48.113],[3.269,48.116],[3.278,48.125],[3.304,48.143],[3.31,48.153],[3.303,48.161],[3.262,48.185],[3.275,48.209],[3.264,48.231],[3.245,48.251],[3.231,48.277],[3.195,48.321],[3.184,48.329],[3.108,48.348],[3.107,48.35],[3.095,48.36],[3.09,48.363],[3.082,48.364],[3.066,48.362],[3.06,48.366],[3.036,48.373],[3.002,48.373],[2.972,48.378],[2.961,48.397]]]}},{"type":"Feature","properties":{"nom":"Schelde","rang":8},"geometry":{"type":"MultiLineString","coordinates":[[[3.264,49.991],[3.23,50.008],[3.208,50.025],[3.203,50.046],[3.219,50.075],[3.229,50.083],[3.239,50.09],[3.244,50.097],[3.241,50.107],[3.235,50.11],[3.197,50.118],[3.181,50.131],[3.191,50.152],[3.212,50.173],[3.275,50.223],[3.288,50.237],[3.32,50.279],[3.337,50.295],[3.357,50.306],[3.382,50.316],[3.406,50.32],[3.449,50.315],[3.471,50.317],[3.492,50.327],[3.506,50.346],[3.531,50.386],[3.582,50.432],[3.587,50.439],[3.584,50.445],[3.573,50.453],[3.557,50.462],[3.453,50.501],[3.438,50.509],[3.43,50.521],[3.429,50.536],[3.436,50.566],[3.435,50.58],[3.427,50.587],[3.404,50.599],[3.383,50.617],[3.367,50.637],[3.356,50.658],[3.35,50.684],[3.367,50.717],[3.413,50.747],[3.593,50.832],[3.606,50.842],[3.637,50.878],[3.646,50.884],[3.667,50.893],[3.677,50.9],[3.683,50.911],[3.676,50.917],[3.664,50.923],[3.656,50.933],[3.655,50.947],[3.661,50.951],[3.67,50.952],[3.682,50.956],[3.708,50.974],[3.728,50.994],[3.744,51.017],[3.755,51.046],[3.779,51.043],[3.793,51.034],[3.805,51.022],[3.823,51.009],[3.836,51.003],[3.847,51.003],[3.873,51.009],[3.99,51.015],[4.011,51.013],[4.021,51.014],[4.033,51.018],[4.042,51.026],[4.055,51.045],[4.066,51.052],[4.079,51.054],[4.089,51.051],[4.099,51.046],[4.11,51.043],[4.122,51.045],[4.142,51.057],[4.153,51.06],[4.162,51.055],[4.17,51.046],[4.179,51.041],[4.191,51.045],[4.196,51.055],[4.193,51.066],[4.188,51.077],[4.185,51.087],[4.183,51.096],[4.182,51.1],[4.185,51.104],[4.198,51.114],[4.216,51.122],[4.236,51.124],[4.276,51.124],[4.316,51.132],[4.329,51.148],[4.333,51.17],[4.349,51.197],[4.392,51.225],[4.395,51.234],[4.308,51.269]]]}},{"type":"Feature","properties":{"nom":"Doubs","rang":8},"geometry":{"type":"MultiLineString","coordinates":[[[6.15,46.648],[6.143,46.668],[6.146,46.686],[6.163,46.7],[6.186,46.711],[6.223,46.733],[6.258,46.748],[6.286,46.763],[6.288,46.777],[6.286,46.794],[6.297,46.8],[6.339,46.835],[6.34,46.852],[6.35,46.862],[6.363,46.869],[6.373,46.876],[6.357,46.913],[6.353,46.934],[6.359,46.95],[6.367,46.946],[6.375,46.945],[6.384,46.946],[6.393,46.948],[6.424,46.969],[6.484,47.022],[6.506,47.033],[6.554,47.033],[6.566,47.036],[6.602,47.053],[6.605,47.053],[6.616,47.052],[6.621,47.052],[6.627,47.055],[6.639,47.062],[6.646,47.064],[6.645,47.068],[6.649,47.077],[6.659,47.091],[6.667,47.096],[6.677,47.099],[6.696,47.102],[6.731,47.099],[6.746,47.104],[6.744,47.121],[6.774,47.128],[6.84,47.17],[6.859,47.191],[6.888,47.212],[6.956,47.245],[6.952,47.27],[6.958,47.291],[6.977,47.304],[7.01,47.307],[7.019,47.31],[7.029,47.317],[7.038,47.321],[7.043,47.32],[7.049,47.317],[7.056,47.314],[7.065,47.314],[7.133,47.335],[7.157,47.348],[7.168,47.358],[7.167,47.369],[7.103,47.362],[7.084,47.356],[7.075,47.355],[7.048,47.355],[6.986,47.348],[6.918,47.348],[6.899,47.345],[6.868,47.335],[6.86,47.335],[6.849,47.329],[6.833,47.327],[6.798,47.328],[6.779,47.332],[6.767,47.338],[6.76,47.346],[6.757,47.355],[6.757,47.363],[6.761,47.374],[6.768,47.385],[6.778,47.396],[6.773,47.407],[6.778,47.415],[6.787,47.425],[6.796,47.456],[6.807,47.456],[6.822,47.451],[6.836,47.454],[6.844,47.467],[6.842,47.478],[6.832,47.486],[6.819,47.492],[6.804,47.492],[6.792,47.488],[6.781,47.482],[6.77,47.478],[6.723,47.478],[6.716,47.475],[6.709,47.47],[6.695,47.464],[6.648,47.454],[6.626,47.439],[6.613,47.437],[6.605,47.443],[6.597,47.453],[6.59,47.462],[6.582,47.461],[6.565,47.445],[6.555,47.447],[6.546,47.446],[6.538,47.442],[6.531,47.437],[6.547,47.432],[6.555,47.431],[6.565,47.43],[6.565,47.424],[6.548,47.422],[6.531,47.418],[6.516,47.412],[6.503,47.403],[6.505,47.398],[6.508,47.387],[6.51,47.383],[6.49,47.378],[6.438,47.376],[6.424,47.372],[6.416,47.366],[6.406,47.363],[6.384,47.362],[6.379,47.359],[6.352,47.342],[6.337,47.344],[6.312,47.339],[6.288,47.332],[6.277,47.324],[6.266,47.314],[6.211,47.296],[6.143,47.29],[6.12,47.284],[6.099,47.273],[6.093,47.273],[6.087,47.274],[6.081,47.274],[6.079,47.27],[6.079,47.26],[6.077,47.256],[6.068,47.249],[6.055,47.241],[6.044,47.241],[6.017,47.245],[6.021,47.241],[6.026,47.235],[6.03,47.232],[5.948,47.197],[5.958,47.197],[5.961,47.197],[5.961,47.191],[5.93,47.18],[5.917,47.18],[5.899,47.191],[5.893,47.184],[5.907,47.177],[5.907,47.17],[5.898,47.165],[5.896,47.159],[5.895,47.153],[5.89,47.146],[5.882,47.142],[5.864,47.142],[5.845,47.134],[5.848,47.162],[5.842,47.17],[5.793,47.172],[5.777,47.17],[5.731,47.149],[5.722,47.142],[5.716,47.142],[5.707,47.151],[5.688,47.153],[5.617,47.143],[5.585,47.136],[5.571,47.127],[5.55,47.104],[5.537,47.095],[5.521,47.093],[5.5,47.092],[5.486,47.088],[5.489,47.074],[5.481,47.068],[5.459,47.056],[5.451,47.054],[5.453,47.053],[5.453,47.049],[5.452,47.044],[5.45,47.039],[5.447,47.033],[5.443,47.027],[5.439,47.022],[5.434,47.019],[5.441,47.013],[5.416,47.013],[5.391,47.008],[5.376,46.993],[5.386,46.964],[5.376,46.957],[5.369,46.933],[5.358,46.923],[5.348,46.929],[5.338,46.931],[5.328,46.929],[5.318,46.923],[5.296,46.935],[5.263,46.938],[5.23,46.932],[5.209,46.917],[5.206,46.925],[5.202,46.93],[5.196,46.934],[5.188,46.937],[5.173,46.931],[5.168,46.931],[5.163,46.933],[5.158,46.938],[5.154,46.942],[5.154,46.944],[5.131,46.943],[5.116,46.937],[5.076,46.905],[5.063,46.901],[5.048,46.901],[5.013,46.904],[4.993,46.904],[4.973,46.9],[4.955,46.889],[4.968,46.874],[4.964,46.853],[4.951,46.833]]]}},{"type":"Feature","properties":{"nom":"Sane","rang":8},"geometry":{"type":"MultiLineString","coordinates":[[[4.951,46.833],[4.934,46.821],[4.917,46.812],[4.908,46.808],[4.881,46.806],[4.877,46.804],[4.874,46.797],[4.862,46.783],[4.866,46.771],[4.885,46.754],[4.908,46.738],[4.945,46.724],[4.959,46.706],[4.967,46.681],[4.968,46.656],[4.964,46.631],[4.956,46.604],[4.946,46.579],[4.934,46.56],[4.94,46.542],[4.942,46.517],[4.94,46.494],[4.92,46.475],[4.906,46.409],[4.898,46.396],[4.886,46.383],[4.876,46.368],[4.867,46.332],[4.855,46.315],[4.831,46.287],[4.812,46.25],[4.806,46.229],[4.802,46.202],[4.798,46.184],[4.796,46.159],[4.795,46.151],[4.79,46.142],[4.774,46.118],[4.769,46.108],[4.759,46.077],[4.749,46.059],[4.75,46.04],[4.754,46.02],[4.755,45.998],[4.747,45.967],[4.749,45.957],[4.757,45.951],[4.784,45.945],[4.79,45.94],[4.794,45.931],[4.813,45.923],[4.82,45.907],[4.838,45.889],[4.839,45.879],[4.838,45.855],[4.841,45.847],[4.849,45.832],[4.851,45.823],[4.849,45.814],[4.84,45.8],[4.838,45.789],[4.837,45.777],[4.836,45.769],[4.831,45.752]]]}},{"type":"Feature","properties":{"nom":"Maas","rang":8},"geometry":{"type":"MultiLineString","coordinates":[[[5.691,50.768],[5.698,50.784],[5.704,50.825],[5.7,50.864],[5.681,50.885],[5.688,50.889],[5.701,50.905],[5.705,50.907],[5.717,50.909],[5.722,50.912],[5.735,50.924],[5.752,50.948],[5.763,50.96],[5.754,50.963],[5.744,50.963],[5.722,50.96],[5.761,50.999],[5.777,51.024],[5.763,51.035],[5.766,51.049],[5.771,51.058],[5.779,51.062],[5.791,51.055],[5.798,51.062],[5.804,51.069],[5.811,51.083],[5.809,51.087],[5.807,51.09],[5.804,51.097],[5.815,51.096],[5.826,51.097],[5.836,51.1],[5.845,51.104],[5.823,51.119],[5.826,51.13],[5.86,51.151],[5.875,51.153],[5.884,51.159],[5.891,51.167],[5.899,51.172],[5.917,51.171],[5.933,51.167],[5.946,51.167],[5.955,51.179],[5.946,51.181],[5.942,51.184],[5.939,51.187],[5.934,51.192],[5.954,51.192],[5.969,51.193],[5.979,51.2],[5.983,51.217],[5.99,51.229],[6.005,51.239],[6.016,51.25],[6.009,51.261],[6.009,51.268],[6.031,51.27],[6.065,51.296],[6.101,51.309],[6.113,51.324],[6.123,51.343],[6.133,51.358],[6.143,51.363],[6.153,51.366],[6.162,51.372],[6.167,51.384],[6.166,51.392],[6.156,51.407],[6.153,51.416],[6.157,51.431],[6.174,51.464],[6.181,51.48],[6.18,51.481],[6.18,51.503],[6.181,51.508],[6.172,51.513],[6.146,51.519],[6.14,51.525],[6.133,51.544],[6.114,51.553],[6.071,51.563],[6.059,51.567],[6.053,51.57],[6.049,51.574],[6.043,51.583]]]}},{"type":"Feature","properties":{"nom":"Maas","rang":8},"geometry":{"type":"MultiLineString","coordinates":[[[4.708,49.767],[4.701,49.767]]]}},{"type":"Feature","properties":{"nom":"Maas","rang":8},"geometry":{"type":"MultiLineString","coordinates":[[[5.605,48.001],[5.581,48],[5.561,48.001],[5.547,48.006],[5.537,48.006],[5.53,48.026],[5.557,48.157],[5.575,48.193],[5.594,48.215],[5.619,48.253],[5.625,48.257],[5.629,48.257],[5.632,48.259],[5.633,48.27],[5.637,48.273],[5.645,48.274],[5.654,48.274],[5.66,48.273],[5.66,48.31],[5.692,48.38],[5.674,48.404],[5.677,48.414],[5.685,48.451],[5.695,48.454],[5.702,48.461],[5.707,48.471],[5.708,48.482],[5.711,48.492],[5.726,48.513],[5.729,48.52],[5.729,48.531],[5.726,48.538],[5.721,48.538],[5.716,48.527],[5.708,48.527],[5.705,48.539],[5.698,48.547],[5.687,48.553],[5.674,48.555],[5.674,48.561],[5.687,48.569],[5.687,48.584],[5.683,48.601],[5.681,48.616],[5.69,48.627],[5.702,48.636],[5.705,48.645],[5.688,48.658],[5.716,48.665],[5.728,48.671],[5.726,48.681],[5.709,48.701],[5.701,48.708],[5.688,48.712],[5.676,48.711],[5.653,48.701],[5.643,48.699],[5.633,48.703],[5.633,48.713],[5.64,48.722],[5.654,48.726],[5.654,48.733],[5.644,48.742],[5.637,48.745],[5.63,48.746],[5.622,48.75],[5.619,48.758],[5.617,48.767],[5.612,48.774],[5.59,48.78],[5.588,48.78],[5.577,48.783],[5.575,48.788],[5.577,48.796],[5.575,48.804],[5.568,48.808],[5.551,48.806],[5.544,48.808],[5.54,48.814],[5.536,48.832],[5.533,48.836],[5.518,48.84],[5.52,48.848],[5.533,48.858],[5.551,48.862],[5.537,48.872],[5.525,48.873],[5.513,48.871],[5.496,48.87],[5.504,48.879],[5.518,48.887],[5.531,48.892],[5.537,48.893],[5.533,48.909],[5.524,48.916],[5.513,48.921],[5.502,48.931],[5.501,48.941],[5.507,48.962],[5.506,48.969],[5.424,49.024],[5.417,49.028],[5.412,49.035],[5.414,49.05],[5.42,49.075],[5.411,49.133],[5.403,49.14],[5.379,49.151],[5.387,49.167],[5.378,49.174],[5.365,49.178],[5.358,49.181],[5.36,49.191],[5.372,49.219],[5.319,49.221],[5.304,49.225],[5.297,49.236],[5.309,49.244],[5.338,49.253],[5.286,49.291],[5.264,49.313],[5.263,49.329],[5.247,49.335],[5.213,49.339],[5.198,49.346],[5.19,49.358],[5.186,49.389],[5.181,49.404],[5.191,49.406],[5.198,49.411],[5.201,49.418],[5.202,49.428],[5.199,49.433],[5.19,49.443],[5.188,49.449],[5.189,49.454],[5.191,49.457],[5.193,49.459],[5.194,49.462],[5.195,49.469],[5.196,49.473],[5.197,49.478],[5.194,49.486],[5.165,49.539],[5.157,49.547],[5.145,49.549],[5.105,49.547],[5.099,49.548],[5.095,49.552],[5.091,49.558],[5.084,49.562],[5.071,49.562],[5.071,49.568],[5.09,49.579],[5.099,49.591],[5.096,49.604],[5.078,49.617],[4.958,49.674],[4.94,49.685],[4.927,49.713],[4.906,49.739],[4.894,49.737],[4.893,49.732],[4.895,49.723],[4.893,49.713],[4.895,49.714],[4.898,49.71],[4.897,49.705],[4.893,49.698],[4.889,49.697],[4.872,49.698],[4.83,49.695],[4.806,49.695],[4.79,49.698],[4.779,49.708],[4.779,49.716],[4.783,49.724],[4.783,49.733],[4.776,49.744],[4.772,49.748],[4.755,49.754],[4.736,49.758],[4.692,49.76],[4.674,49.767],[4.683,49.773],[4.693,49.774],[4.701,49.772],[4.708,49.767],[4.736,49.767],[4.721,49.781],[4.731,49.782],[4.74,49.782],[4.748,49.783],[4.755,49.788],[4.754,49.803],[4.749,49.812],[4.746,49.821],[4.749,49.836],[4.754,49.845],[4.762,49.848],[4.772,49.847],[4.783,49.842],[4.775,49.854],[4.764,49.861],[4.736,49.87],[4.74,49.876],[4.741,49.881],[4.738,49.885],[4.729,49.891],[4.719,49.878],[4.71,49.883],[4.704,49.898],[4.701,49.915],[4.696,49.916],[4.684,49.914],[4.674,49.919],[4.674,49.939],[4.667,49.939],[4.659,49.927],[4.651,49.929],[4.64,49.935],[4.626,49.939],[4.626,49.945],[4.642,49.947],[4.654,49.955],[4.661,49.966],[4.66,49.98],[4.667,49.984],[4.676,49.986],[4.698,49.986],[4.712,49.989],[4.714,49.996],[4.708,50.001],[4.701,50],[4.702,50.002],[4.707,50.014],[4.712,50.016],[4.719,50.014],[4.726,50.014],[4.729,50.018],[4.729,50.08],[4.731,50.086],[4.742,50.096],[4.775,50.114],[4.779,50.117],[4.789,50.114],[4.792,50.098],[4.803,50.096],[4.814,50.101],[4.815,50.109],[4.81,50.118],[4.803,50.124],[4.803,50.13],[4.833,50.144],[4.845,50.154],[4.834,50.158],[4.83,50.167],[4.831,50.212],[4.843,50.213],[4.859,50.206],[4.873,50.204],[4.879,50.216],[4.884,50.219],[4.895,50.221],[4.904,50.223],[4.903,50.229],[4.899,50.239],[4.906,50.244],[4.917,50.247],[4.927,50.247],[4.915,50.277],[4.91,50.281],[4.902,50.284],[4.903,50.292],[4.906,50.302],[4.906,50.309],[4.898,50.32],[4.885,50.334],[4.87,50.345],[4.858,50.35],[4.87,50.354],[4.875,50.359],[4.876,50.367],[4.879,50.377],[4.88,50.383],[4.88,50.39],[4.882,50.398],[4.889,50.408],[4.89,50.421],[4.878,50.435],[4.868,50.45],[4.879,50.466],[4.895,50.472],[4.958,50.487],[4.969,50.485],[4.988,50.476],[4.999,50.474],[5.009,50.476],[5.014,50.482],[5.018,50.488],[5.023,50.494],[5.042,50.5],[5.108,50.501],[5.129,50.505],[5.174,50.523],[5.194,50.528],[5.216,50.527],[5.231,50.524],[5.244,50.526],[5.26,50.538],[5.268,50.542],[5.281,50.543],[5.293,50.542],[5.311,50.533],[5.321,50.536],[5.338,50.548],[5.385,50.575],[5.413,50.585],[5.462,50.592],[5.49,50.607],[5.499,50.61],[5.561,50.61],[5.571,50.616],[5.579,50.628],[5.584,50.642],[5.592,50.652],[5.599,50.655],[5.618,50.656],[5.626,50.658],[5.635,50.663],[5.639,50.668],[5.642,50.674],[5.646,50.679],[5.666,50.693],[5.688,50.714],[5.7,50.736],[5.688,50.754],[5.688,50.761],[5.691,50.768]]]}},{"type":"Feature","properties":{"nom":"Ariège","rang":6},"geometry":{"type":"MultiLineString","coordinates":[[[1.809,42.627],[1.815,42.643],[1.833,42.67],[1.837,42.688],[1.83,42.715],[1.812,42.736],[1.787,42.752],[1.761,42.763],[1.675,42.784],[1.663,42.789],[1.651,42.798],[1.618,42.832],[1.603,42.855],[1.597,42.881],[1.629,42.913],[1.592,42.991],[1.607,43.034],[1.619,43.053],[1.617,43.071],[1.597,43.114],[1.596,43.119],[1.597,43.129],[1.597,43.134],[1.595,43.14],[1.591,43.149],[1.589,43.154],[1.592,43.166],[1.597,43.18],[1.599,43.193],[1.588,43.216],[1.584,43.238],[1.58,43.247],[1.534,43.314],[1.525,43.322],[1.495,43.344],[1.453,43.394],[1.448,43.405],[1.44,43.43],[1.435,43.439],[1.423,43.454],[1.41,43.477],[1.401,43.5],[1.404,43.518]]]}},{"type":"Feature","properties":{"nom":"Garonne","rang":6},"geometry":{"type":"MultiLineString","coordinates":[[[0.924,42.646],[0.92,42.675],[0.903,42.699],[0.865,42.708],[0.821,42.712],[0.792,42.724],[0.769,42.738],[0.726,42.751],[0.716,42.754],[0.699,42.767],[0.699,42.792],[0.734,42.863],[0.728,42.886],[0.71,42.9],[0.686,42.926],[0.66,42.939],[0.65,42.948],[0.639,42.968],[0.624,43.001],[0.606,43.032],[0.586,43.045],[0.57,43.05],[0.56,43.06],[0.559,43.072],[0.564,43.083],[0.578,43.09],[0.617,43.101],[0.637,43.11],[0.661,43.115],[0.723,43.105],[0.759,43.11],[0.827,43.105],[0.866,43.106],[0.904,43.121],[0.942,43.15],[0.988,43.181],[1.105,43.223],[1.152,43.252],[1.185,43.279],[1.226,43.306],[1.249,43.326],[1.288,43.372],[1.3,43.396],[1.333,43.479],[1.349,43.494],[1.404,43.518],[1.434,43.555],[1.409,43.625],[1.33,43.737],[1.325,43.741],[1.313,43.748],[1.309,43.751],[1.305,43.76],[1.302,43.776],[1.299,43.781],[1.272,43.802],[1.259,43.814],[1.254,43.829],[1.25,43.834],[1.22,43.881],[1.189,43.921],[1.179,43.929],[1.179,43.945],[1.167,43.968],[1.148,43.989],[1.131,43.997],[1.105,44.006],[1.086,44.028],[1.071,44.053],[1.055,44.073],[1.036,44.081],[1.029,44.083],[1.005,44.088],[0.972,44.09],[0.925,44.077],[0.889,44.081],[0.853,44.091],[0.83,44.1],[0.819,44.107],[0.799,44.126],[0.789,44.134],[0.774,44.139],[0.742,44.146],[0.704,44.162],[0.643,44.164],[0.617,44.176],[0.599,44.197],[0.588,44.214],[0.571,44.226],[0.418,44.251],[0.36,44.251],[0.333,44.26],[0.322,44.282],[0.325,44.311],[0.325,44.324],[0.319,44.336],[0.306,44.354],[0.294,44.374],[0.293,44.381],[0.296,44.394],[0.294,44.401],[0.291,44.403],[0.275,44.409],[0.261,44.419],[0.253,44.422],[0.245,44.423],[0.23,44.422],[0.223,44.425],[0.201,44.445],[0.137,44.484],[0.128,44.5],[0.124,44.505],[0.117,44.505],[0.102,44.503],[0.096,44.505],[0.075,44.519],[0.074,44.523],[0.074,44.53],[0.072,44.536],[0.065,44.539],[0.042,44.533],[0.032,44.535],[0.028,44.549],[0.021,44.557],[-0.028,44.566],[-0.036,44.583],[-0.041,44.586],[-0.051,44.587],[-0.06,44.585],[-0.068,44.581],[-0.076,44.58],[-0.133,44.58],[-0.229,44.568],[-0.26,44.573],[-0.284,44.588],[-0.372,44.691],[-0.384,44.7],[-0.434,44.717],[-0.5,44.758],[-0.52,44.778],[-0.528,44.81],[-0.535,44.824],[-0.551,44.833],[-0.567,44.839],[-0.576,44.847],[-0.573,44.861],[-0.55,44.882],[-0.542,44.898]]]}},{"type":"Feature","properties":{"nom":"Loire","rang":5},"geometry":{"type":"MultiLineString","coordinates":[[[3.011,47.174],[2.993,47.203],[2.988,47.222],[2.986,47.24],[2.98,47.256],[2.972,47.269],[2.961,47.28],[2.933,47.3],[2.904,47.312],[2.895,47.317],[2.881,47.333],[2.879,47.346],[2.886,47.359],[2.929,47.42],[2.933,47.434],[2.93,47.453],[2.922,47.467],[2.878,47.52],[2.844,47.543],[2.837,47.553],[2.797,47.588],[2.766,47.602],[2.755,47.609],[2.741,47.622],[2.74,47.626],[2.741,47.631],[2.742,47.635],[2.738,47.637],[2.733,47.638],[2.721,47.644],[2.717,47.646],[2.711,47.654],[2.707,47.657],[2.459,47.766],[2.426,47.773],[2.368,47.771],[2.35,47.773],[2.344,47.777],[2.339,47.784],[2.332,47.791],[2.32,47.794],[2.301,47.795],[2.295,47.797],[2.289,47.801],[2.289,47.807],[2.298,47.82],[2.249,47.837],[2.248,47.855],[2.233,47.86],[2.141,47.865],[2.1,47.876],[2.076,47.876],[2.067,47.872],[2.059,47.866],[2.051,47.862],[2.042,47.862],[2.036,47.868],[2.031,47.886],[2.025,47.89],[2.006,47.892],[1.976,47.901],[1.884,47.906],[1.868,47.9],[1.853,47.889],[1.835,47.881],[1.73,47.853],[1.72,47.845],[1.714,47.836],[1.673,47.794],[1.663,47.789],[1.655,47.789],[1.647,47.787],[1.638,47.78],[1.617,47.743],[1.612,47.739],[1.589,47.733],[1.583,47.728],[1.582,47.714],[1.58,47.708],[1.525,47.675],[1.504,47.667],[1.459,47.66],[1.439,47.651],[1.31,47.572],[1.282,47.546],[1.258,47.513],[1.242,47.498],[1.223,47.492],[1.201,47.489],[0.906,47.401],[0.823,47.403],[0.786,47.408],[0.708,47.409],[0.545,47.381],[0.507,47.369],[0.493,47.362],[0.479,47.352],[0.456,47.331],[0.443,47.326],[0.409,47.324],[0.394,47.317],[0.373,47.303],[0.211,47.243],[0.123,47.236],[0.096,47.23],[0.075,47.218],[0.01,47.248],[-0.01,47.252],[-0.033,47.253],[-0.053,47.258],[-0.072,47.265],[-0.089,47.273],[-0.144,47.315],[-0.161,47.321],[-0.181,47.324],[-0.25,47.362],[-0.267,47.383],[-0.274,47.389],[-0.291,47.4],[-0.299,47.406],[-0.314,47.413],[-0.377,47.424],[-0.399,47.424],[-0.456,47.417],[-0.513,47.424],[-0.535,47.424],[-0.61,47.413],[-0.618,47.403],[-0.636,47.391],[-0.672,47.376],[-0.687,47.372],[-0.717,47.37],[-0.731,47.371],[-0.836,47.396],[-0.882,47.4],[-1.001,47.383],[-1.129,47.382],[-1.165,47.376],[-1.223,47.351],[-1.244,47.348],[-1.286,47.346],[-1.304,47.341],[-1.461,47.253],[-1.488,47.226],[-1.501,47.218],[-1.511,47.217],[-1.532,47.219],[-1.542,47.218],[-1.548,47.216],[-1.569,47.205],[-1.588,47.2],[-1.63,47.196],[-1.651,47.197],[-1.712,47.21],[-1.735,47.211]]]}},{"type":"Feature","properties":{"nom":"Loire","rang":5},"geometry":{"type":"MultiLineString","coordinates":[[[3.078,46.985],[3.072,46.999],[3.071,47.016],[3.074,47.035],[3.071,47.054],[3.062,47.063],[3.049,47.067],[3.038,47.073],[3.029,47.088],[3.028,47.102],[3.03,47.117],[3.03,47.132],[3.022,47.149],[3.015,47.168],[3.011,47.174]],[[4.191,44.827],[4.183,44.8],[4.173,44.783],[4.148,44.782],[4.108,44.793],[4.067,44.814],[4.013,44.852],[3.939,44.877],[3.924,44.895],[3.92,44.914],[3.909,44.945],[3.917,44.966],[3.908,44.976],[3.896,44.986],[3.89,44.996],[3.894,45.004],[3.919,45.013],[3.929,45.028],[3.929,45.047],[3.908,45.078],[3.907,45.09],[3.909,45.102],[3.903,45.125],[3.918,45.138],[3.926,45.154],[3.93,45.174],[3.929,45.191],[3.938,45.203],[3.963,45.212],[3.996,45.215],[4.021,45.213],[4.05,45.218],[4.091,45.239],[4.124,45.265],[4.131,45.286],[4.128,45.303],[4.138,45.322],[4.154,45.336],[4.178,45.347],[4.201,45.38],[4.222,45.399],[4.24,45.422],[4.247,45.452],[4.247,45.478],[4.252,45.506],[4.248,45.526],[4.248,45.546],[4.263,45.57],[4.238,45.599],[4.236,45.611],[4.237,45.624],[4.233,45.638],[4.222,45.652],[4.197,45.672],[4.198,45.681],[4.204,45.694],[4.202,45.728],[4.206,45.754],[4.191,45.785],[4.185,45.815],[4.164,45.829],[4.134,45.868],[4.113,45.879],[4.107,45.89],[4.094,45.906],[4.04,45.942],[4.027,45.962],[4.028,45.98],[4.034,45.997],[4.051,46.016],[4.103,46.066],[4.106,46.079],[4.099,46.091],[4.1,46.142],[4.093,46.174],[4.077,46.202],[4.035,46.242],[4.022,46.266],[4.018,46.287],[4.021,46.297],[4.02,46.309],[4.016,46.317],[4.001,46.329],[4.001,46.332],[4.001,46.335],[4,46.338],[3.998,46.339],[3.995,46.342],[3.991,46.346],[3.989,46.349],[3.987,46.353],[3.986,46.356],[3.986,46.361],[3.987,46.366],[3.988,46.371],[3.986,46.374],[3.984,46.378],[3.982,46.38],[3.98,46.383],[3.979,46.388],[3.979,46.395],[3.989,46.423],[3.99,46.427],[3.989,46.432],[3.987,46.436],[3.984,46.44],[3.982,46.443],[3.981,46.448],[3.98,46.455],[3.979,46.463],[3.977,46.467],[3.974,46.469],[3.972,46.471],[3.959,46.475],[3.947,46.481],[3.937,46.484],[3.907,46.487],[3.878,46.493],[3.874,46.495],[3.871,46.497],[3.867,46.501],[3.865,46.503],[3.85,46.509],[3.839,46.519],[3.835,46.522],[3.83,46.523],[3.825,46.523],[3.81,46.522],[3.805,46.523],[3.802,46.525],[3.799,46.528],[3.796,46.53],[3.791,46.531],[3.781,46.533],[3.776,46.535],[3.767,46.541],[3.765,46.542],[3.749,46.546],[3.741,46.549],[3.739,46.553],[3.739,46.557],[3.743,46.564],[3.745,46.568],[3.746,46.593],[3.743,46.61],[3.74,46.615],[3.736,46.619],[3.724,46.623],[3.708,46.64],[3.703,46.652],[3.699,46.657],[3.694,46.66],[3.689,46.662],[3.685,46.664],[3.674,46.674],[3.671,46.677],[3.658,46.686],[3.656,46.691],[3.653,46.701],[3.65,46.708],[3.625,46.739],[3.621,46.755],[3.611,46.761],[3.6,46.762],[3.537,46.8],[3.466,46.835],[3.432,46.843],[3.366,46.842],[3.347,46.849],[3.331,46.86],[3.309,46.873],[3.286,46.891],[3.251,46.941],[3.229,46.963],[3.203,46.978],[3.176,46.987],[3.153,46.987],[3.12,46.973],[3.101,46.969],[3.084,46.973],[3.078,46.985]]]}},{"type":"Feature","properties":{"nom":"Adour","rang":10},"geometry":{"type":"MultiLineString","coordinates":[[[0.239,42.914],[0.248,42.933],[0.261,42.945],[0.264,42.958],[0.25,42.978],[0.226,42.998],[0.203,43.013],[0.183,43.03],[0.125,43.119],[0.105,43.163],[0.091,43.225],[0.086,43.281],[0.089,43.311],[0.093,43.332],[0.092,43.367],[0.087,43.404],[0.081,43.43],[0.069,43.449],[0.052,43.468],[0.036,43.489],[0.025,43.536],[0.004,43.572],[-0.011,43.63],[-0.023,43.654],[-0.042,43.668],[-0.069,43.675],[-0.101,43.673],[-0.131,43.669],[-0.169,43.672],[-0.216,43.69],[-0.255,43.713],[-0.285,43.743],[-0.308,43.759],[-0.342,43.77],[-0.407,43.776],[-0.43,43.781],[-0.464,43.784],[-0.574,43.778],[-0.625,43.782],[-0.739,43.771],[-0.769,43.774],[-0.792,43.782],[-0.837,43.802],[-0.86,43.808],[-0.879,43.809],[-0.891,43.804],[-0.902,43.789],[-0.912,43.789],[-0.926,43.783],[-0.957,43.741],[-0.967,43.738],[-0.979,43.744],[-0.998,43.745],[-1.02,43.739],[-1.054,43.724],[-1.082,43.721],[-1.097,43.703],[-1.128,43.687],[-1.162,43.664],[-1.197,43.658],[-1.213,43.649],[-1.225,43.635],[-1.231,43.623],[-1.228,43.612],[-1.205,43.59],[-1.198,43.574],[-1.204,43.564],[-1.21,43.554],[-1.243,43.531],[-1.284,43.514],[-1.317,43.509],[-1.385,43.508],[-1.418,43.504],[-1.441,43.499],[-1.471,43.509],[-1.514,43.539]]]}},{"type":"Feature","properties":{"nom":"Aube","rang":11},"geometry":{"type":"MultiLineString","coordinates":[[[5.127,47.769],[5.115,47.767],[5.1,47.77],[5.08,47.782],[5.065,47.8],[5.061,47.818],[5.053,47.835],[5.026,47.852],[4.992,47.871],[4.943,47.91],[4.923,47.924],[4.902,47.932],[4.87,47.936],[4.861,47.944],[4.856,47.948],[4.847,47.954],[4.812,47.962],[4.801,47.966],[4.798,47.974],[4.807,47.985],[4.805,47.991],[4.793,47.997],[4.789,48.01],[4.786,48.091],[4.795,48.143],[4.794,48.169],[4.785,48.193],[4.77,48.212],[4.75,48.222],[4.714,48.227],[4.707,48.231],[4.7,48.24],[4.684,48.251],[4.625,48.279],[4.596,48.294],[4.58,48.31],[4.57,48.324],[4.542,48.344],[4.512,48.378],[4.479,48.389],[4.414,48.442],[4.368,48.469],[4.348,48.49],[4.328,48.504],[4.304,48.515],[4.264,48.524],[4.22,48.542],[4.195,48.55],[4.171,48.552],[4.148,48.55],[4.119,48.55],[4.011,48.571],[3.916,48.583],[3.823,48.587],[3.761,48.583],[3.721,48.567]]]}},{"type":"Feature","properties":{"nom":"Charente","rang":10},"geometry":{"type":"MultiLineString","coordinates":[[[0.748,45.795],[0.652,45.849],[0.621,45.872],[0.606,45.888],[0.601,45.9],[0.592,45.913],[0.568,45.935],[0.541,45.964],[0.511,46.025],[0.451,46.067],[0.431,46.092],[0.418,46.116],[0.403,46.135],[0.386,46.149],[0.367,46.159],[0.339,46.163],[0.299,46.16],[0.264,46.15],[0.243,46.137],[0.239,46.122],[0.248,46.09],[0.249,46.072],[0.243,46.056],[0.231,46.04],[0.225,46.02],[0.243,45.964],[0.244,45.94],[0.235,45.922],[0.222,45.903],[0.196,45.892],[0.117,45.894],[0.098,45.885],[0.083,45.871],[0.058,45.857],[0.042,45.845],[0.048,45.834],[0.064,45.821],[0.075,45.792],[0.105,45.785],[0.115,45.771],[0.123,45.753],[0.142,45.728],[0.151,45.701],[0.148,45.678],[0.133,45.673],[0.114,45.675],[0.094,45.656],[0.048,45.64],[0.017,45.622],[-0.008,45.631],[-0.023,45.624],[-0.04,45.621],[-0.059,45.634],[-0.079,45.652],[-0.118,45.671],[-0.136,45.684],[-0.156,45.688],[-0.185,45.688],[-0.213,45.685],[-0.244,45.687],[-0.311,45.71],[-0.332,45.707],[-0.358,45.697],[-0.402,45.692],[-0.445,45.694],[-0.472,45.699],[-0.491,45.706],[-0.545,45.719],[-0.576,45.728],[-0.601,45.743],[-0.616,45.762],[-0.626,45.78],[-0.644,45.803],[-0.646,45.818],[-0.653,45.835],[-0.695,45.865],[-0.703,45.878],[-0.716,45.887],[-0.789,45.893],[-0.813,45.903],[-0.827,45.913],[-0.858,45.92],[-0.894,45.945],[-0.921,45.951],[-0.943,45.949],[-0.951,45.942],[-0.954,45.934],[-0.964,45.928],[-0.979,45.927],[-0.993,45.932],[-1.001,45.943],[-1,45.958],[-1.006,45.969],[-1.031,45.969],[-1.069,45.964]]]}},{"type":"Feature","properties":{"nom":"Saône","rang":10},"geometry":{"type":"MultiLineString","coordinates":[[[6.16,48.089],[6.137,48.089],[6.113,48.092],[6.085,48.099],[6.059,48.098],[6.037,48.081],[6.016,48.06],[5.991,48.05],[5.969,48.044],[5.949,48.029],[5.918,48.015],[5.902,47.998],[5.892,47.979],[5.89,47.965],[5.903,47.954],[5.953,47.928],[5.97,47.915],[5.968,47.899],[5.93,47.858],[5.928,47.843],[5.94,47.835],[5.956,47.83],[5.977,47.82],[6.003,47.798],[6.04,47.752],[6.044,47.734],[6.044,47.711],[6.037,47.688],[6.027,47.671],[6.012,47.662],[5.977,47.659],[5.974,47.648],[5.973,47.634],[5.964,47.626],[5.949,47.628],[5.938,47.636],[5.922,47.639],[5.873,47.612],[5.841,47.604],[5.834,47.597],[5.821,47.59],[5.762,47.576],[5.744,47.565],[5.731,47.552],[5.714,47.542],[5.693,47.536],[5.673,47.535],[5.661,47.529],[5.661,47.512],[5.656,47.491],[5.632,47.474],[5.556,47.451],[5.53,47.435],[5.508,47.414],[5.495,47.395],[5.491,47.378],[5.492,47.362],[5.485,47.348],[5.44,47.325],[5.422,47.308],[5.41,47.292],[5.393,47.28],[5.404,47.257],[5.406,47.243],[5.397,47.227],[5.379,47.208],[5.365,47.187],[5.364,47.166],[5.359,47.146],[5.335,47.128],[5.303,47.116],[5.251,47.104],[5.183,47.079],[5.144,47.072],[5.129,47.061],[5.124,47.043],[5.13,47.021],[5.132,46.997],[5.115,46.971],[5.088,46.952],[5.054,46.938],[5.049,46.92],[5.039,46.914],[5.013,46.904]]]}},{"type":"Feature","properties":{"nom":"Aveyron","rang":11},"geometry":{"type":"MultiLineString","coordinates":[[[3.123,44.308],[3.095,44.32],[3.062,44.327],[3.015,44.353],[2.99,44.361],[2.939,44.364],[2.915,44.368],[2.876,44.395],[2.846,44.405],[2.813,44.41],[2.763,44.409],[2.737,44.413],[2.705,44.399],[2.681,44.392],[2.661,44.371],[2.625,44.373],[2.587,44.364],[2.547,44.35],[2.516,44.343],[2.493,44.344],[2.452,44.363],[2.357,44.388],[2.332,44.392],[2.273,44.383],[2.231,44.382],[2.169,44.378],[2.098,44.369],[2.048,44.355],[2.02,44.336],[2.005,44.315],[2.001,44.295],[2.003,44.28],[2.001,44.265],[1.981,44.225],[1.979,44.172],[1.968,44.162],[1.926,44.164],[1.899,44.146],[1.873,44.145],[1.845,44.147],[1.817,44.144],[1.798,44.151],[1.773,44.156],[1.745,44.153],[1.725,44.143],[1.72,44.133],[1.723,44.12],[1.72,44.102],[1.711,44.087],[1.695,44.078],[1.672,44.078],[1.644,44.079],[1.617,44.084],[1.579,44.094],[1.528,44.094],[1.487,44.112],[1.462,44.107],[1.451,44.111],[1.432,44.112],[1.403,44.101],[1.368,44.092],[1.336,44.096],[1.309,44.104],[1.286,44.103],[1.255,44.096]]]}},{"type":"Feature","properties":{"nom":"Le gave de Pau","rang":12},"geometry":{"type":"MultiLineString","coordinates":[[[-0.068,42.758],[-0.039,42.752],[-0.015,42.758],[0.003,42.776],[0.01,42.803],[0.005,42.828],[-0.023,42.899],[-0.059,42.953],[-0.065,42.967],[-0.066,42.98],[-0.074,43],[-0.077,43.022],[-0.067,43.041],[-0.054,43.06],[-0.05,43.082],[-0.071,43.1],[-0.171,43.119],[-0.2,43.137],[-0.217,43.157],[-0.254,43.185],[-0.267,43.215],[-0.283,43.236],[-0.329,43.278],[-0.353,43.291],[-0.411,43.307],[-0.449,43.323],[-0.54,43.376],[-0.578,43.392],[-0.614,43.411],[-0.643,43.411],[-0.659,43.417],[-0.672,43.429],[-0.679,43.443],[-0.695,43.459],[-0.732,43.477],[-0.772,43.49],[-0.815,43.495],[-0.843,43.513],[-0.878,43.518],[-0.943,43.54],[-0.984,43.545],[-1.028,43.546],[-1.106,43.552],[-1.155,43.548],[-1.175,43.551],[-1.204,43.564],[-1.204,43.564]]]}},{"type":"Feature","properties":{"nom":"Arc","rang":11},"geometry":{"type":"MultiLineString","coordinates":[[[7.119,45.407],[7.095,45.393],[7.047,45.376],[7.009,45.343],[6.973,45.322],[6.927,45.305],[6.825,45.289],[6.814,45.28],[6.788,45.249],[6.766,45.233],[6.742,45.224],[6.704,45.22],[6.674,45.212],[6.639,45.206],[6.524,45.218],[6.476,45.227],[6.423,45.249],[6.381,45.275],[6.36,45.295],[6.351,45.308],[6.32,45.332],[6.303,45.348],[6.29,45.371],[6.28,45.4],[6.277,45.432],[6.281,45.46],[6.291,45.485],[6.311,45.527],[6.314,45.54],[6.309,45.549],[6.296,45.559],[6.274,45.567],[6.242,45.571],[6.208,45.569],[6.177,45.564],[6.138,45.548],[6.084,45.52],[6.036,45.484],[6.011,45.45],[5.999,45.416],[5.982,45.379],[5.962,45.343],[5.941,45.313],[5.911,45.284],[5.87,45.25],[5.823,45.221],[5.781,45.206],[5.745,45.204],[5.712,45.21],[5.682,45.227],[5.651,45.252],[5.628,45.278],[5.617,45.295],[5.603,45.303],[5.574,45.304],[5.543,45.297],[5.526,45.285],[5.511,45.266],[5.487,45.241],[5.461,45.219],[5.424,45.201],[5.395,45.183],[5.369,45.163],[5.357,45.15],[5.344,45.141],[5.315,45.13],[5.284,45.115],[5.267,45.097],[5.251,45.085],[5.191,45.087],[5.171,45.078],[5.157,45.064],[5.141,45.054],[5.118,45.05],[5.056,45.048],[5.022,45.04],[4.965,45.045],[4.948,45.038],[4.935,45.028],[4.891,45.013],[4.857,45.002]]]}},{"type":"Feature","properties":{"nom":"Eure","rang":11},"geometry":{"type":"MultiLineString","coordinates":[[[0.828,48.562],[0.863,48.558],[0.913,48.546],[0.973,48.527],[1.041,48.51],[1.094,48.499],[1.143,48.494],[1.166,48.486],[1.188,48.475],[1.201,48.465],[1.218,48.458],[1.284,48.455],[1.318,48.444],[1.345,48.431],[1.386,48.416],[1.412,48.404],[1.439,48.395],[1.465,48.397],[1.481,48.407],[1.485,48.418],[1.485,48.429],[1.495,48.448],[1.49,48.46],[1.491,48.474],[1.507,48.489],[1.533,48.506],[1.56,48.528],[1.578,48.55],[1.585,48.57],[1.581,48.586],[1.559,48.616],[1.55,48.635],[1.532,48.655],[1.462,48.688],[1.438,48.704],[1.425,48.723],[1.41,48.762],[1.382,48.785],[1.364,48.803],[1.362,48.821],[1.372,48.831],[1.395,48.844],[1.412,48.852],[1.436,48.859],[1.444,48.864],[1.451,48.871],[1.454,48.881],[1.454,48.888],[1.445,48.91],[1.448,48.917],[1.441,48.928],[1.433,48.936],[1.401,48.999],[1.383,49.016],[1.369,49.024],[1.346,49.049],[1.311,49.075],[1.268,49.101],[1.215,49.123],[1.202,49.131],[1.196,49.143],[1.187,49.178],[1.173,49.205],[1.174,49.22],[1.184,49.238],[1.202,49.256],[1.215,49.274],[1.215,49.289],[1.209,49.308]]]}},{"type":"Feature","properties":{"nom":"Lot","rang":10},"geometry":{"type":"MultiLineString","coordinates":[[[3.395,44.501],[3.343,44.485],[3.325,44.485],[3.307,44.491],[3.281,44.496],[3.251,44.497],[3.227,44.494],[3.211,44.484],[3.189,44.454],[3.17,44.446],[3.142,44.449],[3.073,44.473],[3.042,44.481],[3.014,44.482],[2.985,44.478],[2.956,44.478],[2.93,44.491],[2.904,44.509],[2.878,44.519],[2.794,44.524],[2.719,44.549],[2.673,44.559],[2.651,44.579],[2.592,44.623],[2.562,44.649],[2.543,44.654],[2.514,44.655],[2.465,44.652],[2.455,44.662],[2.422,44.659],[2.385,44.659],[2.374,44.66],[2.368,44.66],[2.361,44.659],[2.353,44.654],[2.346,44.652],[2.331,44.641],[2.267,44.626],[2.18,44.589],[2.141,44.581],[2.063,44.587],[2.044,44.579],[2.027,44.57],[1.988,44.556],[1.928,44.521],[1.889,44.506],[1.795,44.476],[1.722,44.472],[1.691,44.473],[1.623,44.488],[1.605,44.484],[1.595,44.479],[1.559,44.485],[1.5,44.473],[1.48,44.475],[1.467,44.479],[1.438,44.477],[1.406,44.495],[1.393,44.494],[1.378,44.489],[1.359,44.487],[1.338,44.489],[1.312,44.498],[1.303,44.491],[1.289,44.484],[1.17,44.509],[1.116,44.51],[1.035,44.492],[0.98,44.499],[0.948,44.493],[0.921,44.479],[0.892,44.449],[0.849,44.43],[0.831,44.418],[0.813,44.409],[0.79,44.408],[0.739,44.41],[0.719,44.413],[0.695,44.432],[0.655,44.432],[0.617,44.448],[0.601,44.448],[0.59,44.441],[0.587,44.428],[0.577,44.414],[0.551,44.402],[0.522,44.396],[0.494,44.4],[0.477,44.39],[0.449,44.388],[0.415,44.37],[0.377,44.358],[0.337,44.338],[0.319,44.336]]]}},{"type":"Feature","properties":{"nom":"Aude","rang":10},"geometry":{"type":"MultiLineString","coordinates":[[[2.03,42.578],[2.051,42.57],[2.073,42.57],[2.095,42.579],[2.114,42.596],[2.125,42.614],[2.129,42.633],[2.127,42.664],[2.137,42.683],[2.136,42.702],[2.117,42.707],[2.108,42.712],[2.101,42.718],[2.093,42.73],[2.086,42.738],[2.088,42.758],[2.098,42.768],[2.123,42.777],[2.154,42.782],[2.18,42.783],[2.201,42.787],[2.22,42.8],[2.228,42.818],[2.221,42.832],[2.206,42.846],[2.194,42.863],[2.188,42.881],[2.187,42.899],[2.193,42.914],[2.202,42.929],[2.217,42.94],[2.249,42.958],[2.259,42.972],[2.26,42.988],[2.251,43.013],[2.25,43.029],[2.245,43.045],[2.223,43.069],[2.225,43.086],[2.241,43.104],[2.292,43.135],[2.299,43.148],[2.302,43.165],[2.316,43.188],[2.334,43.207],[2.356,43.217],[2.37,43.228],[2.394,43.234],[2.428,43.224],[2.485,43.199],[2.499,43.198],[2.528,43.207],[2.559,43.209],[2.597,43.215],[2.633,43.23],[2.668,43.249],[2.704,43.263],[2.734,43.266],[2.756,43.258],[2.774,43.249],[2.829,43.25],[2.907,43.244],[2.926,43.247],[2.937,43.253],[2.955,43.256],[2.977,43.255],[3.026,43.248],[3.11,43.254],[3.153,43.253],[3.189,43.246],[3.217,43.236],[3.244,43.219]]]}},{"type":"Feature","properties":{"nom":"Creuse","rang":10},"geometry":{"type":"MultiLineString","coordinates":[[[2.17,45.85],[2.166,45.92],[2.168,45.945],[2.163,45.971],[2.142,46.007],[2.114,46.042],[2.076,46.074],[2.059,46.101],[2.016,46.139],[1.976,46.178],[1.928,46.215],[1.912,46.236],[1.894,46.254],[1.869,46.274],[1.845,46.292],[1.817,46.307],[1.743,46.34],[1.665,46.391],[1.637,46.404],[1.622,46.414],[1.612,46.456],[1.585,46.495],[1.581,46.514],[1.58,46.532],[1.575,46.547],[1.556,46.566],[1.524,46.593],[1.489,46.62],[1.463,46.636],[1.436,46.642],[1.365,46.643],[1.341,46.646],[1.314,46.647],[1.22,46.635],[1.172,46.635],[1.094,46.64],[1.064,46.645],[0.995,46.68],[0.977,46.693],[0.941,46.743],[0.917,46.766],[0.886,46.783],[0.862,46.791],[0.831,46.779],[0.713,46.9],[0.693,46.943],[0.682,46.958],[0.672,46.966],[0.661,46.971],[0.64,46.977],[0.584,47.001],[0.572,47.004],[0.57,47.002],[0.569,47.001]]]}},{"type":"Feature","properties":{"nom":"Ill","rang":11},"geometry":{"type":"MultiLineString","coordinates":[[[7.22,47.462],[7.205,47.501],[7.19,47.531],[7.176,47.549],[7.158,47.565],[7.135,47.592],[7.117,47.621],[7.113,47.643],[7.126,47.658],[7.149,47.669],[7.176,47.674],[7.201,47.673],[7.228,47.676],[7.261,47.691],[7.293,47.716],[7.315,47.744],[7.33,47.767],[7.345,47.781],[7.357,47.797],[7.362,47.823],[7.359,47.851],[7.351,47.873],[7.351,47.896],[7.388,47.966],[7.398,47.999],[7.402,48.023],[7.409,48.039],[7.411,48.052],[7.403,48.068],[7.391,48.083],[7.385,48.097],[7.389,48.113],[7.421,48.167],[7.439,48.212],[7.46,48.251],[7.485,48.27],[7.506,48.278],[7.516,48.29],[7.522,48.307],[7.532,48.327],[7.545,48.343],[7.555,48.351],[7.612,48.383],[7.648,48.411],[7.668,48.434],[7.677,48.454],[7.701,48.491],[7.707,48.515],[7.718,48.544],[7.764,48.601],[7.774,48.624],[7.799,48.638],[7.812,48.65],[7.832,48.662],[7.864,48.664]]]}},{"type":"Feature","properties":{"nom":"Vilaine","rang":10},"geometry":{"type":"MultiLineString","coordinates":[[[-0.992,48.226],[-1.006,48.223],[-1.024,48.216],[-1.05,48.203],[-1.071,48.187],[-1.077,48.175],[-1.078,48.167],[-1.086,48.159],[-1.104,48.154],[-1.168,48.146],[-1.259,48.121],[-1.285,48.12],[-1.306,48.122],[-1.337,48.118],[-1.386,48.117],[-1.503,48.133],[-1.548,48.134],[-1.58,48.141],[-1.615,48.127],[-1.669,48.118],[-1.726,48.103],[-1.759,48.079],[-1.772,48.052],[-1.779,48.03],[-1.778,48.015],[-1.77,48.005],[-1.76,47.996],[-1.752,47.982],[-1.751,47.965],[-1.764,47.931],[-1.763,47.91],[-1.78,47.895],[-1.778,47.874],[-1.782,47.86],[-1.796,47.845],[-1.818,47.832],[-1.837,47.808],[-1.842,47.767],[-1.869,47.725],[-1.874,47.701],[-1.938,47.685],[-1.958,47.676],[-1.993,47.676],[-2.023,47.673],[-2.031,47.671],[-2.035,47.67],[-2.05,47.661],[-2.081,47.65],[-2.089,47.633],[-2.086,47.629],[-2.084,47.623],[-2.085,47.62],[-2.087,47.616],[-2.087,47.612],[-2.086,47.608],[-2.087,47.604],[-2.091,47.599],[-2.114,47.594],[-2.149,47.594],[-2.189,47.596],[-2.217,47.593],[-2.28,47.581],[-2.296,47.57],[-2.304,47.557],[-2.306,47.539],[-2.315,47.529],[-2.333,47.511],[-2.364,47.506]]]}},{"type":"Feature","properties":{"nom":"Cher","rang":11},"geometry":{"type":"MultiLineString","coordinates":[[[2.293,45.925],[2.289,45.936],[2.297,45.954],[2.314,45.977],[2.326,46.007],[2.321,46.043],[2.311,46.079],[2.312,46.106],[2.322,46.128],[2.337,46.147],[2.357,46.164],[2.381,46.18],[2.407,46.191],[2.455,46.197],[2.473,46.201],[2.5,46.219],[2.544,46.256],[2.582,46.297],[2.596,46.327],[2.595,46.353],[2.603,46.418],[2.601,46.465],[2.609,46.496],[2.613,46.535],[2.613,46.549],[2.617,46.552],[2.619,46.557],[2.618,46.561],[2.617,46.566],[2.616,46.57],[2.612,46.576],[2.606,46.582],[2.591,46.595],[2.585,46.601],[2.583,46.608],[2.585,46.615],[2.592,46.625],[2.593,46.629],[2.591,46.634],[2.58,46.645],[2.576,46.651],[2.577,46.656],[2.581,46.66],[2.57,46.671],[2.559,46.684],[2.499,46.718],[2.487,46.731],[2.483,46.738],[2.455,46.746],[2.44,46.753],[2.426,46.765],[2.402,46.799],[2.385,46.81],[2.365,46.819],[2.344,46.833],[2.325,46.853],[2.309,46.879],[2.299,46.902],[2.292,46.929],[2.269,46.954],[2.242,47],[2.212,47.044],[2.194,47.088],[2.176,47.114],[2.154,47.168],[2.14,47.187],[2.097,47.215],[2.069,47.225],[2.009,47.228],[1.985,47.232],[1.901,47.269],[1.783,47.294],[1.753,47.295],[1.724,47.289],[1.673,47.273],[1.658,47.275],[1.638,47.281],[1.604,47.285],[1.564,47.284],[1.497,47.275],[1.447,47.274],[1.386,47.285],[1.259,47.337],[1.192,47.345],[1.09,47.337],[1.053,47.336],[0.871,47.359],[0.811,47.377],[0.781,47.382],[0.683,47.382],[0.589,47.376],[0.569,47.372],[0.539,47.359],[0.478,47.353]]]}},{"type":"Feature","properties":{"nom":"Somme","rang":11},"geometry":{"type":"MultiLineString","coordinates":[[[3.451,49.935],[3.424,49.924],[3.393,49.914],[3.358,49.906],[3.33,49.895],[3.301,49.859],[3.27,49.838],[3.239,49.819],[3.206,49.792],[3.165,49.769],[3.155,49.76],[3.145,49.755],[3.067,49.758],[3.038,49.762],[3.007,49.773],[2.981,49.79],[2.965,49.809],[2.955,49.825],[2.932,49.844],[2.926,49.862],[2.927,49.884],[2.931,49.903],[2.93,49.92],[2.915,49.935],[2.899,49.947],[2.892,49.956],[2.882,49.96],[2.827,49.963],[2.811,49.968],[2.796,49.968],[2.744,49.943],[2.717,49.941],[2.701,49.927],[2.68,49.929],[2.658,49.913],[2.646,49.914],[2.633,49.918],[2.596,49.918],[2.541,49.927],[2.514,49.918],[2.469,49.914],[2.435,49.898],[2.395,49.894],[2.345,49.897],[2.299,49.909],[2.264,49.922],[2.225,49.932],[2.162,49.958],[2.121,49.973],[2.085,49.988],[2.036,50.019],[1.946,50.048],[1.899,50.066],[1.863,50.084],[1.807,50.118],[1.654,50.187]]]}},{"type":"Feature","properties":{"nom":"Mayenne","rang":12},"geometry":{"type":"MultiLineString","coordinates":[[[-0.465,48.387],[-0.438,48.395],[-0.408,48.401],[-0.375,48.404],[-0.348,48.413],[-0.334,48.434],[-0.334,48.458],[-0.337,48.469],[-0.344,48.493],[-0.353,48.492],[-0.42,48.504],[-0.47,48.507],[-0.483,48.506],[-0.493,48.505],[-0.501,48.501],[-0.535,48.476],[-0.544,48.472],[-0.554,48.468],[-0.578,48.465],[-0.584,48.45],[-0.585,48.443],[-0.604,48.419],[-0.609,48.406],[-0.605,48.392],[-0.594,48.377],[-0.594,48.353],[-0.614,48.318],[-0.64,48.284],[-0.656,48.256],[-0.689,48.238],[-0.722,48.204],[-0.736,48.192],[-0.746,48.179],[-0.755,48.139],[-0.78,48.11],[-0.78,48.101],[-0.772,48.088],[-0.758,48.046],[-0.742,48.02],[-0.728,47.974],[-0.715,47.945],[-0.72,47.925],[-0.71,47.916],[-0.698,47.9],[-0.697,47.844],[-0.686,47.817],[-0.675,47.797],[-0.674,47.775],[-0.661,47.764],[-0.655,47.744],[-0.671,47.711],[-0.691,47.674],[-0.698,47.646],[-0.691,47.626],[-0.68,47.607],[-0.661,47.593],[-0.618,47.572],[-0.608,47.552],[-0.579,47.539],[-0.561,47.523],[-0.549,47.502]]]}},{"type":"Feature","properties":{"nom":"Sarthe","rang":11},"geometry":{"type":"MultiLineString","coordinates":[[[0.494,48.648],[0.477,48.643],[0.458,48.636],[0.439,48.624],[0.428,48.606],[0.426,48.558],[0.415,48.538],[0.394,48.525],[0.346,48.51],[0.307,48.486],[0.294,48.474],[0.281,48.474],[0.193,48.46],[0.176,48.451],[0.165,48.447],[0.153,48.446],[0.143,48.44],[0.126,48.437],[0.098,48.433],[0.039,48.432],[0.002,48.407],[-0.06,48.387],[-0.077,48.377],[-0.081,48.364],[-0.078,48.346],[-0.064,48.326],[-0.04,48.306],[-0.015,48.291],[0.016,48.284],[0.046,48.268],[0.075,48.27],[0.093,48.268],[0.109,48.26],[0.12,48.248],[0.122,48.234],[0.115,48.21],[0.118,48.196],[0.132,48.181],[0.176,48.147],[0.183,48.131],[0.185,48.117],[0.199,48.1],[0.192,48.082],[0.199,48.068],[0.183,48.05],[0.19,48.02],[0.17,47.983],[0.175,47.944],[0.167,47.933],[0.149,47.923],[0.114,47.891],[0.098,47.883],[0.086,47.884],[0.066,47.897],[0.038,47.897],[0.016,47.91],[-0.002,47.914],[-0.021,47.912],[-0.053,47.892],[-0.087,47.883],[-0.109,47.859],[-0.13,47.854],[-0.19,47.849],[-0.202,47.864],[-0.236,47.861],[-0.261,47.862],[-0.289,47.861],[-0.314,47.85],[-0.339,47.837],[-0.364,47.829],[-0.379,47.819],[-0.384,47.781],[-0.399,47.77],[-0.42,47.762],[-0.435,47.749],[-0.442,47.733],[-0.442,47.717],[-0.446,47.703],[-0.461,47.694],[-0.481,47.679],[-0.496,47.649],[-0.501,47.62],[-0.5,47.597],[-0.511,47.584],[-0.527,47.556]]]}},{"type":"Feature","properties":{"nom":"Allier","rang":11},"geometry":{"type":"MultiLineString","coordinates":[[[3.881,44.583],[3.897,44.597],[3.903,44.618],[3.902,44.639],[3.902,44.665],[3.892,44.686],[3.889,44.692],[3.882,44.697],[3.875,44.703],[3.872,44.714],[3.871,44.747],[3.868,44.755],[3.837,44.764],[3.834,44.765],[3.833,44.769],[3.822,44.787],[3.817,44.793],[3.795,44.792],[3.789,44.793],[3.759,44.815],[3.751,44.818],[3.748,44.821],[3.747,44.824],[3.749,44.836],[3.748,44.84],[3.74,44.847],[3.721,44.856],[3.7,44.881],[3.681,44.896],[3.666,44.912],[3.664,44.932],[3.67,44.941],[3.685,44.956],[3.688,44.966],[3.681,44.975],[3.649,44.985],[3.634,44.994]]]}},{"type":"Feature","properties":{"nom":"Allier","rang":11},"geometry":{"type":"MultiLineString","coordinates":[[[3.634,44.994],[3.627,45.021],[3.621,45.033],[3.612,45.043],[3.599,45.051],[3.571,45.061],[3.558,45.068],[3.501,45.108],[3.471,45.142],[3.453,45.145],[3.436,45.155],[3.423,45.168],[3.416,45.184],[3.395,45.313],[3.386,45.333],[3.348,45.386],[3.331,45.434],[3.323,45.445],[3.312,45.454],[3.287,45.468],[3.269,45.474],[3.263,45.48],[3.269,45.496],[3.275,45.542],[3.271,45.558],[3.26,45.571],[3.234,45.592],[3.207,45.623],[3.201,45.633],[3.199,45.644],[3.201,45.654],[3.204,45.664],[3.206,45.675],[3.205,45.683],[3.201,45.698],[3.201,45.706],[3.203,45.713],[3.208,45.725],[3.209,45.732],[3.208,45.736],[3.206,45.738],[3.205,45.74],[3.205,45.745],[3.206,45.748],[3.208,45.75],[3.226,45.766],[3.269,45.796],[3.276,45.803],[3.279,45.809],[3.283,45.824],[3.286,45.831],[3.294,45.845],[3.296,45.851],[3.302,45.864],[3.331,45.888],[3.337,45.899],[3.339,45.905],[3.348,45.925],[3.36,45.943],[3.367,45.944],[3.379,45.936],[3.388,45.951],[3.429,45.971],[3.447,45.985],[3.457,46.003],[3.458,46.02],[3.416,46.13],[3.41,46.167],[3.427,46.197],[3.421,46.208],[3.421,46.217],[3.421,46.227],[3.419,46.238],[3.415,46.245],[3.401,46.258],[3.399,46.263],[3.394,46.274],[3.365,46.328],[3.351,46.338],[3.333,46.349],[3.317,46.362],[3.31,46.378],[3.33,46.536],[3.327,46.558],[3.317,46.572],[3.179,46.684],[3.089,46.73],[3.047,46.76],[3.029,46.794],[3.038,46.819],[3.055,46.838],[3.07,46.859],[3.071,46.889],[3.068,46.895],[3.059,46.904],[3.057,46.909],[3.057,46.917],[3.058,46.922],[3.061,46.926],[3.076,46.972],[3.078,46.985]]]}},{"type":"Feature","properties":{"nom":"Têt","rang":11},"geometry":{"type":"MultiLineString","coordinates":[[[2.12,42.48],[2.12,42.5],[2.25,42.55],[2.42,42.62],[2.62,42.67],[2.75,42.69],[2.88,42.7],[3.03,42.72]]]}},{"type":"Feature","properties":{"nom":"Tech","rang":11},"geometry":{"type":"MultiLineString","coordinates":[[[2.48,42.4],[2.63,42.46],[2.75,42.49],[2.83,42.52],[2.97,42.6],[3.04,42.59]]]}},{"type":"Feature","properties":{"nom":"Agly","rang":11},"geometry":{"type":"MultiLineString","coordinates":[[[2.55,42.8],[2.67,42.77],[2.87,42.77],[3.03,42.78]]]}}]}